parkID,parkName,lat,lng,capacity,emptyCapacity,workHours,parkType,freeTime,district,isOpen
2381,1293 Yavuz Selim Otomatik Otoparkı,41.0233,28.9529,60,58,24 Saat,KAPALI OTOPARK,15,FATİH,1
2866,15 Temmuz Demokrasi Otogarı,41.0416,28.8946,1000,0,24 Saat,AÇIK OTOPARK,40,BAYRAMPAŞA,1
3068,15 Temmuz Şehitler Meydanı Zeminaltı Otoparkı,41.0251,29.0912,1029,563,24 Saat,KAPALI OTOPARK,15,ÜMRANİYE,1
2338,19 Mayıs Açık,41.0563,28.9941,65,3,24 Saat,AÇIK OTOPARK,0,ŞİŞLİ,1
786,19 Mayıs Caddesi 1,40.8793,29.2303,15,15,09:00-18:00,YOL ÜSTÜ,15,PENDİK,0
787,19 Mayıs Caddesi 2,40.8786,29.2307,15,5,09:00-18:00,YOL ÜSTÜ,15,PENDİK,0
788,19 Mayıs Caddesi 3,40.878,29.2312,20,18,09:00-18:00,YOL ÜSTÜ,15,PENDİK,0
1751,4.Levent P+R Açık Otoparkı,41.0836,29.0081,710,210,24 Saat,AÇIK OTOPARK,5,KAĞITHANE,1
101,Abide-i Hürriyet Caddesi 2,41.0634,28.9876,30,17,08:00-18:00,YOL ÜSTÜ,15,ŞİŞLİ,0
103,Abide-i Hürriyet Caddesi 4,41.0621,28.9875,25,15,08:00-18:00,YOL ÜSTÜ,15,ŞİŞLİ,0
104,Abide-i Hürriyet Caddesi 5,41.0612,28.9873,40,22,08:00-18:00,YOL ÜSTÜ,15,ŞİŞLİ,0
105,Abide-i Hürriyet Caddesi 6,41.0606,28.9871,40,36,08:00-18:00,YOL ÜSTÜ,15,ŞİŞLİ,0
106,Abide-i Hürriyet Caddesi 7,41.0599,28.9867,40,40,08:00-18:00,YOL ÜSTÜ,15,ŞİŞLİ,0
107,Abide-i Hürriyet Caddesi 8,41.059,28.9863,30,15,08:00-18:00,YOL ÜSTÜ,15,ŞİŞLİ,0
2452,Acıbadem Açık Otoparkı,41.0158,29.0576,100,91,06:30-16:30,AÇIK OTOPARK,0,ÜSKÜDAR,0
1084,Acıbadem P+R 1,41.0136,29.0599,80,32,06:30-16:30,YOL ÜSTÜ,0,ÜSKÜDAR,0
345,Ada Karşısı 1,41.0613,29.0376,25,25,08:00-23:00,YOL ÜSTÜ,15,BEŞİKTAŞ,0
346,Ada Karşısı Cep 2,41.0722,29.0449,30,17,08:00-23:00,YOL ÜSTÜ,15,BEŞİKTAŞ,0
194,Adliye Önü 1,41.0799,29.0115,40,37,07:00-17:00,YOL ÜSTÜ,15,ŞİŞLİ,0
2357,Adnan Kahveci Metro Açık Otoparkı,40.895,29.2274,40,19,07:30-17:30,AÇIK OTOPARK,0,PENDİK,0
3105,Adnan Menderes Vatan Bulvarı 1,41.0207,28.9341,35,22,07:00-17:00,YOL ÜSTÜ,0,FATİH,0
3106,Adnan Menderes Vatan Bulvarı 2,41.0194,28.936,35,24,07:00-17:00,YOL ÜSTÜ,0,FATİH,0
3108,Adnan Menderes Vatan Bulvarı 4,41.0171,28.9394,35,19,07:00-17:00,YOL ÜSTÜ,0,FATİH,0
3109,Adnan Menderes Vatan Bulvarı 5,41.0177,28.9385,35,23,07:00-17:00,YOL ÜSTÜ,0,FATİH,0
3110,Adnan Menderes Vatan Bulvarı 6,41.021,28.9336,35,27,07:00-17:00,YOL ÜSTÜ,0,FATİH,0
215,Afiyet Hastanesi Önü 1,41.0241,29.0841,20,17,08:00-18:00,YOL ÜSTÜ,15,ÜMRANİYE,0
26,Ahmet Fetgeri-Camii Sokak,41.05,28.9942,21,7,08:00-18:00,YOL ÜSTÜ,15,ŞİŞLİ,0
939,Ahmet Kutsi Tecer Caddesi 1,41.0087,28.887,50,50,09:00-17:00,YOL ÜSTÜ,15,GÜNGÖREN,0
940,Ahmet Kutsi Tecer Caddesi 2,41.0077,28.8876,50,33,09:00-17:00,YOL ÜSTÜ,15,GÜNGÖREN,0
1662,Akasyalı Sokak Tenis Kulubü Önü 1,41.0863,29.0113,45,17,08:30-17:30,YOL ÜSTÜ,15,BEŞİKTAŞ,0
1663,Akasyalı Sokak Tenis Kulubü Önü 2,41.0865,29.0111,45,45,08:30-17:30,YOL ÜSTÜ,15,BEŞİKTAŞ,0
224,Akçam Sokak (İş Bankası Önü) 1,41.0866,29.0081,30,30,08:00-18:00,YOL ÜSTÜ,15,BEŞİKTAŞ,0
825,Akdeniz Caddesi 1,41.017,28.9429,25,10,09:00-18:00,YOL ÜSTÜ,15,FATİH,0
826,Akdeniz Caddesi 2,41.0193,28.9466,25,25,09:00-18:00,YOL ÜSTÜ,15,FATİH,0
827,Akdeniz Caddesi 3,41.0187,28.9457,25,11,09:00-18:00,YOL ÜSTÜ,15,FATİH,0
828,Akdeniz Caddesi 4,41.0195,28.947,25,9,09:00-18:00,YOL ÜSTÜ,15,FATİH,0
1250,Akgün Caddesi 1,41.1292,29.0248,78,63,07:00-17:00,YOL ÜSTÜ,15,SARIYER,0
1306,Akgün Caddesi 2,41.1289,29.0249,45,30,07:00-17:00,YOL ÜSTÜ,15,SARIYER,0
2497,Albay Faik Sözdener 4,40.9874,29.0214,40,11,09:30-19:00,YOL ÜSTÜ,15,KADIKÖY,0
144,Alemdağ Caddesi 1,41.0251,29.0999,18,11,09:00-18:00,YOL ÜSTÜ,15,ÜMRANİYE,0
1913,Alibeyköy Cep Otogarı Açık Otoparkı,41.0878,28.9445,116,0,24 Saat,AÇIK OTOPARK,30,EYÜP,1
1912,Alibeyköy Cep Otogarı Otobüs Otoparkı,41.0876,28.9452,5000,4986,24 Saat,AÇIK OTOPARK,60,EYÜP,1
2562,Alibeyköy Yeşiltepe Zemin Altı Otoparkı,41.0793,28.9385,159,0,24 Saat,KAPALI OTOPARK,15,EYÜP,1
3201,Altınboynuz Sosyal Tesisleri,41.0581,28.9449,70,66,07:00-23:00,AÇIK OTOPARK,15,EYÜP,0
2154,Altunizade Açık Otopark,41.0245,29.0395,80,53,08:00-19:00,AÇIK OTOPARK,5,ÜSKÜDAR,0
2339,Altunizade Aksoy Sokak 1,41.0208,29.0381,30,19,08:00-19:00,YOL ÜSTÜ,15,ÜSKÜDAR,0
758,Arap Camii Açık Otoparkı,41.0227,28.9723,30,30,08:00-18:00,AÇIK OTOPARK,0,BEYOĞLU,0
1963,Aras Sokak 1,41.0225,28.6223,60,25,06:00-15:00,YOL ÜSTÜ,0,BÜYÜKÇEKMECE,0
3086,Arda Turan Spor Kompleksi Katlı,41.0386,28.907,500,349,24 Saat,KAPALI OTOPARK,15,BAYRAMPAŞA,1
2802,Arnavutköy Zemin Altı Otoparkı,41.1835,28.7395,700,201,24 Saat,KAPALI OTOPARK,15,ARNAVUTKÖY,1
1895,Aslanhane Sokak 1,41.0177,28.9505,26,26,08:30-17:30,YOL ÜSTÜ,15,FATİH,0
1797,Ataköy Atrium AVM,40.9881,28.8459,250,138,24 Saat,AÇIK OTOPARK,15,BAKIRKÖY,1
2824,Ataköy Metro Durağı Yanı Zemin Altı Otoparkı,40.9904,28.8456,150,30,24 Saat,KAPALI OTOPARK,0,BAKIRKÖY,1
3140,Ataşehir Ahlat Sokak,40.9989,29.0992,52,34,07:30-17:00,YOL ÜSTÜ,15,ATAŞEHİR,0
3167,Ataşehir Al Zambak Sokak,41.0011,29.1039,71,71,08:00-16:30,YOL ÜSTÜ,15,ATAŞEHİR,0
3134,Ataşehir Ardıç Sokak 1,40.9971,29.1041,115,115,07:00-16:00,YOL ÜSTÜ,15,ATAŞEHİR,0
3135,Ataşehir Ardıç Sokak 2,40.9989,29.1016,67,67,08:00-17:00,YOL ÜSTÜ,15,ATAŞEHİR,0
3136,Ataşehir Atilla İlhan Caddesi,40.9845,29.111,80,71,08:00-16:30,YOL ÜSTÜ,15,ATAŞEHİR,0
3133,Ataşehir Başak Cengiz Sokak,40.9999,29.1059,15,15,08:00-16:00,YOL ÜSTÜ,15,ATAŞEHİR,0
3128,Ataşehir Begonya Sokak 1,41.0027,29.103,55,55,07:00-16:00,YOL ÜSTÜ,15,ATAŞEHİR,0
3129,Ataşehir Begonya Sokak 2,41.0022,29.1025,55,44,07:00-16:00,YOL ÜSTÜ,15,ATAŞEHİR,0
3130,Ataşehir Begonya Sokak 3,41.0007,29.1008,55,43,07:00-16:00,YOL ÜSTÜ,15,ATAŞEHİR,0
3131,Ataşehir Begonya Sokak 4,40.9996,29.0986,55,47,07:00-16:00,YOL ÜSTÜ,15,ATAŞEHİR,0
328,Ataşehir Bulvarı 1,40.9925,29.1192,24,24,08:00-19:00,YOL ÜSTÜ,15,ATAŞEHİR,0
363,Ataşehir Bulvarı 10,40.9932,29.1277,21,12,08:00-19:00,YOL ÜSTÜ,15,ATAŞEHİR,0
365,Ataşehir Bulvarı 12,40.9935,29.1275,24,24,08:00-19:00,YOL ÜSTÜ,15,ATAŞEHİR,0
366,Ataşehir Bulvarı 13,40.9931,29.1277,24,18,08:00-19:00,YOL ÜSTÜ,15,ATAŞEHİR,0
685,Ataşehir Bulvarı 16,40.9917,29.127,24,15,08:00-19:00,YOL ÜSTÜ,15,ATAŞEHİR,0
2537,Ataşehir Bulvarı 22,40.9941,29.1279,24,17,08:00-19:00,YOL ÜSTÜ,15,ATAŞEHİR,0
2539,Ataşehir Bulvarı 24,40.9934,29.1277,24,10,08:00-19:00,YOL ÜSTÜ,15,ATAŞEHİR,0
332,Ataşehir Bulvarı 5,40.9928,29.1253,24,24,08:00-19:00,YOL ÜSTÜ,15,ATAŞEHİR,0
335,Ataşehir Bulvarı 8,40.9927,29.1261,24,24,08:00-19:00,YOL ÜSTÜ,15,ATAŞEHİR,0
3137,Ataşehir Defne Sokak 1,40.9818,29.1026,44,22,07:00-16:00,YOL ÜSTÜ,15,ATAŞEHİR,0
3212,Ataşehir Defne Sokak 3,40.9808,29.1037,44,24,07:00-16:00,YOL ÜSTÜ,15,ATAŞEHİR,0
3214,Ataşehir Defne Sokak 5,40.9813,29.1027,44,44,07:00-16:00,YOL ÜSTÜ,15,ATAŞEHİR,0
3139,Ataşehir Fesleğen Sokak,40.9909,29.109,95,95,08:00-16:00,YOL ÜSTÜ,15,ATAŞEHİR,0
3126,Ataşehir Feza Sokak 2,40.9943,29.1257,35,20,08:00-19:00,YOL ÜSTÜ,15,ATAŞEHİR,0
1886,Ataşehir Halk Caddesi-Palladıum AVM 1,40.9858,29.099,40,33,08:00-17:30,YOL ÜSTÜ,15,ATAŞEHİR,0
1885,Ataşehir Halk Caddesi-Palladıum AVM 2,40.9861,29.0993,36,26,08:00-17:30,YOL ÜSTÜ,15,ATAŞEHİR,0
3148,Ataşehir Işıklar Caddesi,40.9846,29.1119,50,45,08:00-17:30,YOL ÜSTÜ,15,ATAŞEHİR,0
3160,Ataşehir Işıklar Caddesi 2,40.9851,29.1088,50,41,09:00-17:00,YOL ÜSTÜ,15,ATAŞEHİR,0
3146,Ataşehir Mor Sümbül Sokak,40.9952,29.1006,76,76,08:00-16:30,YOL ÜSTÜ,15,ATAŞEHİR,0
3145,Ataşehir Şebboy Sokak,40.9985,29.1004,80,80,08:00-17:00,YOL ÜSTÜ,15,ATAŞEHİR,0
3161,Ataşehir Topçu İbrahim Sokak,40.9736,29.1011,42,42,07:00-16:00,YOL ÜSTÜ,15,ATAŞEHİR,0
3163,Ataşehir Turgut Özal Bulvarı,40.9929,29.1223,55,50,08:00-18:00,YOL ÜSTÜ,15,ATAŞEHİR,0
2886,Ataşehir Umut Sokak Açık Otoparkı,40.972,29.1014,70,40,08:00-18:00,AÇIK OTOPARK,0,ATAŞEHİR,0
360,Atatürk Bulvarı,41.0123,28.9535,50,26,07:00-18:00,YOL ÜSTÜ,0,FATİH,0
359,Atatürk Bulvarı 1,41.0113,28.9535,18,6,07:30-18:00,YOL ÜSTÜ,0,FATİH,0
1068,Atatürk Caddesi 3,41.0735,28.2436,50,41,09:00-20:00,YOL ÜSTÜ,15,SİLİVRİ,0
1069,Atatürk Caddesi 4,41.0732,28.2437,60,60,09:00-20:00,YOL ÜSTÜ,15,SİLİVRİ,0
1070,Atatürk Caddesi 5,41.0729,28.2438,90,90,09:00-20:00,YOL ÜSTÜ,15,SİLİVRİ,0
1071,Atatürk Caddesi 6,41.0721,28.2435,50,49,09:00-20:00,YOL ÜSTÜ,15,SİLİVRİ,0
3009,Atatürk Kent Ormanı Otoparkı,41.1366,29.026,200,200,08:00-17:00,AÇIK OTOPARK,0,SARIYER,0
1088,Avcılar İdo,40.9712,28.7185,270,266,12:00-22:00,AÇIK OTOPARK,0,AVCILAR,0
2318,Avni Akyol Bulvarı 1,41.0723,28.6896,25,21,09:30-18:30,YOL ÜSTÜ,15,BAŞAKŞEHİR,0
2319,Avni Akyol Bulvarı 2,41.072,28.6892,30,30,09:30-18:30,YOL ÜSTÜ,15,BAŞAKŞEHİR,0
2885,Azapkapı Haliç Metro Otoparkı,41.0242,28.9687,130,99,24 Saat,AÇIK OTOPARK,5,ŞİŞLİ,1
2455,Azerbaycan Dostluk Parkı Zemin Altı Otoparkı,41.0443,28.854,400,0,24 Saat,KAPALI OTOPARK,10,BAĞCILAR,1
2965,Bağcılar Çolakoğlu Zemin Altı Otoparkı,41.0329,28.8347,106,20,24 Saat,KAPALI OTOPARK,5,BAĞCILAR,1
2576,Bağcılar Demirkapı Zemin Altı Otoparkı,41.0501,28.8327,343,53,24 Saat,KAPALI OTOPARK,5,BAĞCILAR,1
3036,Bağcılar Devlet Hastanesi Yanı Zeminaltı Otoparkı,41.0326,28.8715,1133,827,24 Saat,KAPALI OTOPARK,15,BAĞCILAR,1
3071,Bağcılar Emniyet Müdürlüğü Yanı Açık Otoparkı,41.0354,28.8597,100,30,24 Saat,AÇIK OTOPARK,0,BAĞCILAR,1
2873,Bağcılar Göztepe Zemin Altı,41.0565,28.8353,120,0,24 Saat,KAPALI OTOPARK,5,BAĞCILAR,1
2426,Bağcılar Halk Sarayı Yanı Açık Otoparkı,41.0417,28.8356,145,140,08:00-22:00,AÇIK OTOPARK,0,BAĞCILAR,0
3187,Bağcılar Hürriyet Mahallesi Zemin Altı Otoparkı,41.0294,28.8328,355,126,24 Saat,KAPALI OTOPARK,0,BAĞCILAR,1
2916,Bağcılar Kent Meydanı Zemin Altı,41.034,28.8557,1162,231,24 Saat,KAPALI OTOPARK,0,BAĞCILAR,1
2820,Bağcılar Yıldıztepe Katlı Otoparkı,41.0295,28.8559,350,0,24 Saat,KAPALI OTOPARK,10,BAĞCILAR,1
2993,Bahçelievler Cumhuriyet Zeminaltı Otoparkı,41.0153,28.8582,663,0,24 Saat,KAPALI OTOPARK,10,BAHÇELİEVLER,1
2969,Bahçelievler Devlet Hastanesi Yanı Katlı Otoparkı,41.0072,28.844,740,0,24 Saat,KAPALI OTOPARK,0,BAHÇELİEVLER,1
3051,Bahçelievler Zafer Mh. Zeminaltı Otoparkı,41.0039,28.8352,200,0,24 Saat,KAPALI OTOPARK,0,BAHÇELİEVLER,1
2346,Bahçeşehir Doğa Parkı Caddesi 1,41.0673,28.6912,22,22,10:00-21:00,YOL ÜSTÜ,15,BAŞAKŞEHİR,0
2329,Bahçeşehir Gölet Açık Otoparkı,41.072,28.6902,200,143,14:00-22:00,AÇIK OTOPARK,0,BAŞAKŞEHİR,0
1079,Bakırköy Açık Otoparkı 1,40.9834,28.8756,40,30,09:00-21:00,AÇIK OTOPARK,5,BAKIRKÖY,0
1465,Bakırköy İdo Açık Otoparkı,40.9739,28.8761,1000,960,24 Saat,AÇIK OTOPARK,10,BAKIRKÖY,1
2997,Bakırköy Sahil Cep Otoparkı,40.9748,28.8782,40,40,12:00-22:00,YOL ÜSTÜ,15,BAKIRKÖY,0
1938,Bakırköy Sahil Cep Otoparkı 2,40.9793,28.8873,50,45,12:00-22:00,YOL ÜSTÜ,15,BAKIRKÖY,0
1146,Balmumcu Açık,41.062,29.0107,140,111,07:00-23:00,AÇIK OTOPARK,5,BEŞİKTAŞ,0
1104,Balmumcu Katlı Otoparkı,41.0635,29.011,400,347,24 Saat,KAPALI OTOPARK,5,BEŞİKTAŞ,1
2796,Başakşehir Metro P+R,41.1074,28.8009,125,125,07:00-17:00,AÇIK OTOPARK,0,BAŞAKŞEHİR,0
759,Başkomutan Caddesi 1,41.0748,28.2444,30,26,09:00-17:00,YOL ÜSTÜ,15,SİLİVRİ,0
760,Başkomutan Caddesi 2,41.0741,28.2459,100,92,09:00-17:00,YOL ÜSTÜ,15,SİLİVRİ,0
761,Başkomutan Caddesi 3,41.0739,28.2462,60,60,09:00-17:00,YOL ÜSTÜ,15,SİLİVRİ,0
762,Başkomutan Caddesi 4,41.0738,28.2472,30,20,09:00-17:00,YOL ÜSTÜ,15,SİLİVRİ,0
900,Bayrampaşa Abdi İpekçi Caddesi 2,41.0368,28.9121,30,30,08:30-17:30,YOL ÜSTÜ,15,BAYRAMPAŞA,0
901,Bayrampaşa Abdi İpekçi Caddesi 3,41.0361,28.912,12,8,08:30-17:30,YOL ÜSTÜ,15,BAYRAMPAŞA,0
903,Bayrampaşa Abdi İpekçi Caddesi 5,41.0343,28.9119,30,22,08:30-17:30,YOL ÜSTÜ,15,BAYRAMPAŞA,0
2350,Bayrampaşa Adapark Katlı Otoparkı,41.0641,28.8872,650,0,24 Saat,KAPALI OTOPARK,15,BAYRAMPAŞA,1
2892,Bayrampaşa Altıntepsi Zemin  Altı Otoparkı,41.0389,28.9025,110,0,24 Saat,KAPALI OTOPARK,10,BAYRAMPAŞA,1
2909,Bayrampaşa Atatürk Parkı  Zemin Altı Otoparkı,41.0336,28.9131,442,78,24 Saat,KAPALI OTOPARK,10,BAYRAMPAŞA,1
2403,Bayrampaşa Devlet Hastanesi Cep Otoparkı 1,41.0415,28.9032,55,45,08:00-18:00,YOL ÜSTÜ,15,BAYRAMPAŞA,0
2053,Bayrampaşa Muratpaşa Yer Altı Otoparkı,41.047,28.9082,300,0,24 Saat,KAPALI OTOPARK,15,BAYRAMPAŞA,1
2581,Bayrampaşa Muzaffer Öztekin Zemin Altı Otoparkı,41.0511,28.9068,400,11,24 Saat,KAPALI OTOPARK,15,BAYRAMPAŞA,1
2034,Bayrampaşa Nikah Dairesi Otoparkı,41.0432,28.913,190,77,24 Saat,KAPALI OTOPARK,10,BAYRAMPAŞA,1
890,Bayrampaşa Numunebağı Caddesi 2,41.0321,28.9144,50,47,08:30-17:30,YOL ÜSTÜ,15,BAYRAMPAŞA,0
892,Bayrampaşa Numunebağı Caddesi 4,41.0329,28.914,30,21,08:30-17:30,YOL ÜSTÜ,15,BAYRAMPAŞA,0
893,Bayrampaşa Numunebağı Caddesi 5,41.0343,28.9133,50,41,08:30-17:30,YOL ÜSTÜ,15,BAYRAMPAŞA,0
2448,Bayrampaşa Sebze-Meyve Hali,41.051,28.8887,100,99,24 Saat,AÇIK OTOPARK,0,BAYRAMPAŞA,1
3175,Bayrampaşa Spor Kompleksi Zemin Altı Otoparkı,41.0445,28.9109,205,0,24 Saat,KAPALI OTOPARK,15,BAYRAMPAŞA,1
2428,Bayrampaşa Yenidoğan Mahallesi Zemin Altı Otoparkı,41.0395,28.9088,120,0,24 Saat,KAPALI OTOPARK,10,BAYRAMPAŞA,1
2468,Bebek Açık,41.077,29.0434,30,0,24 Saat,AÇIK OTOPARK,0,BEŞİKTAŞ,1
3093,Bebek İnşirah Caddesi,41.0765,29.0427,14,4,08:45-21:00,YOL ÜSTÜ,15,BEŞİKTAŞ,0
1818,Bebek Sahil 1,41.0703,29.0457,29,29,08:00-23:00,YOL ÜSTÜ,15,BEŞİKTAŞ,0
339,Bebek Sahil 2,41.0725,29.0448,21,14,08:00-23:00,YOL ÜSTÜ,15,BEŞİKTAŞ,0
2782,Bebek Sahil 3,41.0756,29.0432,20,5,08:00-23:00,YOL ÜSTÜ,15,BEŞİKTAŞ,0
343,Bebek Sahil 4,41.0796,29.0494,18,2,08:00-23:00,YOL ÜSTÜ,15,BEŞİKTAŞ,0
337,Bebek Sahil 5,41.0803,29.0528,20,3,08:00-23:00,YOL ÜSTÜ,15,BEŞİKTAŞ,0
338,Bebek Sahil 6,41.0809,29.054,16,12,08:00-23:00,YOL ÜSTÜ,15,BEŞİKTAŞ,0
470,Bebek Sahil 7,41.0819,29.0558,8,7,08:00-23:00,YOL ÜSTÜ,15,BEŞİKTAŞ,0
1870,Belgrad Ormanı Bahçeköy Girişi Açık,41.1836,28.9889,5000,4998,07:00-19:00,AÇIK OTOPARK,0,SARIYER,0
2814,Belgrad Ormanı Kurt Kemeri Girişi Otoparkı,41.1968,28.9197,5000,4999,06:00-20:00,AÇIK OTOPARK,0,EYÜP,0
1945,Beşiktaş Emirhan Caddesi 5,41.0571,29.0081,80,62,07:00-18:00,YOL ÜSTÜ,15,BEŞİKTAŞ,0
1441,Beşiktaş Halk Pazarı 2,41.0497,29.0005,200,36,24 Saat,KAPALI OTOPARK,15,BEŞİKTAŞ,1
573,Beşiktaş Kadastro Önü 1,41.0503,29.0077,20,8,08:00-17:00,YOL ÜSTÜ,15,BEŞİKTAŞ,0
2201,Beykoz Pazar Yeri Açık Otoparkı,41.14,29.0859,1000,928,09:00-18:00,AÇIK OTOPARK,0,BEYKOZ,0
3257,Beykoz Sahil Cep Otoparkı,41.1294,29.0948,100,97,08:00-00:00,AÇIK OTOPARK,0,BEYKOZ,1
2273,Beykoz Sosyal Tesisleri 2,41.1136,29.0869,130,103,08:00-00:00,AÇIK OTOPARK,30,BEYKOZ,1
559,Beykoz Yalıköy 1,41.1355,29.0886,26,10,08:00-17:00,YOL ÜSTÜ,15,BEYKOZ,0
2454,Beylikdüzü Atatürk Bulvarı Açık Otoparkı,41.0137,28.6453,70,19,11:00-21:00,AÇIK OTOPARK,15,BEYLİKDÜZÜ,0
3259,Beyoğlu Fındıklı Açık Otoparkı,41.0311,28.9889,30,17,08:00-20:00,AÇIK OTOPARK,15,BEYOĞLU,0
2998,Beyoğlu Gazhane Bostan Sokak 1,41.0388,28.9901,35,35,08:00-18:00,YOL ÜSTÜ,0,BEYOĞLU,0
2999,Beyoğlu Gazhane Bostan Sokak 2,41.0383,28.9894,35,35,08:00-18:00,YOL ÜSTÜ,0,BEYOĞLU,0
16,Beyoğlu İnönü Caddesi 3,41.0361,28.9895,30,18,07:30-19:30,YOL ÜSTÜ,15,BEYOĞLU,0
15,Beyoğlu İnönü Caddesi 6,41.0358,28.9873,40,28,07:30-19:30,YOL ÜSTÜ,15,BEYOĞLU,0
3072,Beyoğlu Örnektepe Zemin Altı Otoparkı,41.0543,28.9549,143,0,24 Saat,KAPALI OTOPARK,0,BEYOĞLU,1
2042,Beyoğlu Tepebaşı Katlı Otoparkı,41.0319,28.9744,1005,490,24 Saat,KAPALI OTOPARK,0,BEYOĞLU,1
2020,Biruni Üniversitesi Açık Otoparkı,41.0043,28.9202,150,150,08:00-18:00,AÇIK OTOPARK,0,ZEYTİNBURNU,0
1554,Bomanti Protestan Mezarlığı Yanı 2,41.0554,28.9852,20,10,08:00-18:00,YOL ÜSTÜ,15,ŞİŞLİ,0
212,Bosna Bulvarı 2,41.0248,29.0847,30,28,08:00-18:00,YOL ÜSTÜ,15,ÜMRANİYE,0
214,Bosna Bulvarı 4,41.0249,29.0845,40,28,08:00-18:00,YOL ÜSTÜ,15,ÜMRANİYE,0
1455,Bostancı Açık,40.9523,29.0903,394,360,24 Saat,AÇIK OTOPARK,15,KADIKÖY,1
2178,Bostancı İdo Karşısı Yolüstü Otoparkı 1,40.9524,29.0953,40,38,07:00-23:00,YOL ÜSTÜ,15,KADIKÖY,0
2368,Bostancı İdo Karşısı Yolüstü Otoparkı 2,40.9527,29.0956,40,40,07:00-23:00,YOL ÜSTÜ,15,KADIKÖY,0
1456,Bostancı Sahil-Cep Açık Otoparkı,40.9545,29.0885,192,147,24 Saat,AÇIK OTOPARK,15,KADIKÖY,1
2150,Bostancı Vergi Dairesi Açık Otoparkı,40.9625,29.1081,155,0,08:00-20:00,AÇIK OTOPARK,5,ATAŞEHİR,0
2854,Bülent Ecevit Kültür Merkezi Açık Otoparkı,40.8854,29.197,277,145,09:00-20:00,AÇIK OTOPARK,5,KARTAL,0
1893,Büyük Karaman - Haydarbey Caddeleri 1,41.0161,28.9531,60,60,08:30-19:00,YOL ÜSTÜ,15,FATİH,0
1192,Büyükçamlıca Korusu Sosyal Tesisleri Önü,41.0264,29.0698,204,136,08:00-00:00,AÇIK OTOPARK,0,ÜSKÜDAR,1
2960,Büyükçekmece Metrobüs Durağı Yanı Zemin Altı Otoparkı,41.0221,28.6241,448,328,24 Saat,KAPALI OTOPARK,0,BÜYÜKÇEKMECE,1
1503,Cadde Bostan Açık Otoparkı,40.9637,29.0675,66,34,24 Saat,AÇIK OTOPARK,15,KADIKÖY,1
2933,Cemal Kamacı Spor Kompleksi Zemin Altı Otoparkı,41.0538,28.9587,510,0,24 Saat,KAPALI OTOPARK,0,KAĞITHANE,1
2207,Cengiz Topel Yer Altı Katlı Otoparkı,41.059,28.8643,144,0,24 Saat,KAPALI OTOPARK,15,ESENLER,1
2787,Cevizli Açık Otoparkı,40.9179,29.1711,100,0,08:00-19:00,AÇIK OTOPARK,15,KARTAL,0
780,Cihangir Caddesi 1,41.0322,28.9859,60,39,09:00-19:30,YOL ÜSTÜ,15,BEYOĞLU,0
782,Cihangir Caddesi 2,41.0319,28.9861,70,45,09:00-19:30,YOL ÜSTÜ,15,BEYOĞLU,0
1467,Cihangir Katlı Otoparkı,41.0318,28.9858,350,0,24 Saat,KAPALI OTOPARK,0,BEYOĞLU,1
535,Cihannuma Yol Üstü 1,41.0454,29.0084,35,35,08:00-23:00,YOL ÜSTÜ,0,BEŞİKTAŞ,0
537,Cihannuma Yol Üstü 3,41.0459,29.0087,33,12,08:00-23:00,YOL ÜSTÜ,0,BEŞİKTAŞ,0
538,Cihannuma Yol Üstü 4,41.0481,29.0091,28,3,08:00-23:00,YOL ÜSTÜ,0,BEŞİKTAŞ,0
539,Cihannuma Yol Üstü 5,41.0489,29.0094,24,24,08:00-23:00,YOL ÜSTÜ,0,BEŞİKTAŞ,0
520,Çağlayan 3,41.0765,28.9817,55,31,08:00-17:00,YOL ÜSTÜ,15,KAĞITHANE,0
3179,Çam Sokak 1,41.0123,28.8888,50,50,08:00-18:00,YOL ÜSTÜ,15,GÜNGÖREN,0
3180,Çam Sokak 2,41.0124,28.8886,50,50,08:00-18:00,YOL ÜSTÜ,15,GÜNGÖREN,0
3181,Çam Sokak 3,41.0126,28.8896,50,48,08:00-18:00,YOL ÜSTÜ,15,GÜNGÖREN,0
3182,Çam Sokak 4,41.0128,28.8902,50,50,08:00-18:00,YOL ÜSTÜ,15,GÜNGÖREN,0
3183,Çam Sokak 5,41.013,28.8905,50,50,08:00-18:00,YOL ÜSTÜ,15,GÜNGÖREN,0
1772,Çapa Yol Üstü Otoparkı 1,41.0167,28.931,30,22,07:00-17:00,YOL ÜSTÜ,15,FATİH,0
342,Çarşı Çıkışı,41.0664,29.0417,14,4,08:00-23:00,YOL ÜSTÜ,15,BEŞİKTAŞ,0
2003,Çatalca İnceğiz Mesire Alanı,41.1827,28.4041,1000,1000,10:00-18:00,AÇIK OTOPARK,0,ÇATALCA,0
494,Çatalçeşme 1,41.0093,28.9758,50,50,08:00-17:00,YOL ÜSTÜ,0,FATİH,0
765,Çay Bahçesi Yanı 1,41.0736,28.2436,60,60,09:00-20:00,YOL ÜSTÜ,15,SİLİVRİ,0
766,Çay Bahçesi Yanı 2,41.0731,28.2437,50,50,09:00-20:00,YOL ÜSTÜ,15,SİLİVRİ,0
1259,Çayır Çimen Sokak 1,41.0792,29.0133,30,30,07:00-17:00,YOL ÜSTÜ,15,BEŞİKTAŞ,0
2103,Çekmeköy Çavuşbaşı Caddesi 2,41.0305,29.1726,50,45,09:00-17:00,YOL ÜSTÜ,15,ÇEKMEKÖY,0
2104,Çekmeköy Çavuşbaşı Caddesi 3,41.0307,29.1727,50,46,09:00-17:00,YOL ÜSTÜ,15,ÇEKMEKÖY,0
3030,Çekmeköy Metro Zeminaltı P+R Otoparkı,41.0147,29.1888,175,108,24 Saat,KAPALI OTOPARK,15,ÇEKMEKÖY,1
3004,Çekmeköy Mimar Sinan Caddesi 4,41.0327,29.1764,60,60,09:00-17:00,YOL ÜSTÜ,15,ÇEKMEKÖY,0
1298,Çengelköy Açık Otoparkı,41.0484,29.0535,500,289,24 Saat,AÇIK OTOPARK,15,ÜSKÜDAR,1
502,Çınar Açık Otoparkı,41.0851,29.0087,100,100,08:00-18:00,AÇIK OTOPARK,15,BEŞİKTAŞ,0
1484,Çınar Hotel Önü 1,40.9595,28.836,60,43,09:00-23:00,YOL ÜSTÜ,15,BAKIRKÖY,0
777,Çırağan Sarayı Yol Üstü 1,41.0447,29.0164,40,29,08:00-23:00,YOL ÜSTÜ,15,BEŞİKTAŞ,0
2228,Çırpıcı Sosyal Tesisler,41,28.8926,128,0,24 Saat,AÇIK OTOPARK,15,ZEYTİNBURNU,1
525,Dalbastı Sokak 1,41.0062,28.9787,250,249,08:00-20:00,YOL ÜSTÜ,15,FATİH,0
2030,Dalyan Açık Otoparkı,40.9635,29.0644,120,56,24 Saat,AÇIK OTOPARK,15,KADIKÖY,1
2271,Damla Sokak 1,41.0672,29.0004,17,17,08:00-18:00,YOL ÜSTÜ,15,ŞİŞLİ,0
1569,Darülbedai Caddesi 1,41.0485,28.9914,40,40,07:00-23:00,YOL ÜSTÜ,0,ŞİŞLİ,0
1570,Darülbedai Caddesi 2,41.0489,28.9901,40,22,07:00-23:00,YOL ÜSTÜ,0,ŞİŞLİ,0
1940,Darülbedai Caddesi 4,41.0487,28.9906,40,34,07:00-23:00,YOL ÜSTÜ,0,ŞİŞLİ,0
2164,Darüşşafaka Yeraltı Otoparkı,41.1293,29.0252,150,82,08:00-00:00,KAPALI OTOPARK,15,SARIYER,1
1653,Deniz Feneri Otoparkı,41.0013,28.9768,175,135,24 Saat,AÇIK OTOPARK,5,FATİH,1
1270,Dere Sokak,41.0576,28.9884,15,8,08:00-18:00,YOL ÜSTÜ,15,ŞİŞLİ,0
176,Dereboyu Caddesi 2,41.0526,29.0238,22,22,09:00-17:00,YOL ÜSTÜ,15,BEŞİKTAŞ,0
595,Dostluk Yurdu 1,41.0071,28.9728,50,38,07:00-17:30,YOL ÜSTÜ,15,FATİH,0
2097,Dr. Adnan Büyük Deniz Caddesi 13,41.0329,29.1183,100,82,07:30-16:00,YOL ÜSTÜ,15,ÜMRANİYE,0
634,Dr.Adnan Adıvar Caddesi,41.0083,28.9453,15,12,08:00-17:00,YOL ÜSTÜ,0,FATİH,0
237,Dr.Fahri Atabey Caddesi 1,41.0215,29.0167,24,10,09:00-17:00,YOL ÜSTÜ,15,ÜSKÜDAR,0
2478,Dr.Fahri Atabey Caddesi 6,41.0192,29.0192,32,32,09:00-17:00,YOL ÜSTÜ,15,ÜSKÜDAR,0
2237,Dragos Sosyal Tesisleri,40.9017,29.1456,100,94,24 Saat,AÇIK OTOPARK,15,KARTAL,1
3063,Dudullu Metro Zeminaltı P+R Otoparkı,41.0156,29.1633,81,63,07:00-23:30,KAPALI OTOPARK,15,ÜMRANİYE,0
851,Dumlupınar Caddesi 1,40.9924,28.8377,60,60,09:00-18:00,YOL ÜSTÜ,15,BAHÇELİEVLER,0
852,Dumlupınar Caddesi 2,40.9924,28.8385,60,50,09:00-18:00,YOL ÜSTÜ,15,BAHÇELİEVLER,0
854,Dumlupınar Caddesi 4,40.9923,28.8395,38,33,09:00-18:00,YOL ÜSTÜ,15,BAHÇELİEVLER,0
855,Dumlupınar Caddesi 5,40.9923,28.8401,50,45,09:00-18:00,YOL ÜSTÜ,15,BAHÇELİEVLER,0
857,Dumlupınar Caddesi 7,40.9922,28.8415,39,33,09:00-18:00,YOL ÜSTÜ,15,BAHÇELİEVLER,0
858,Dumlupınar Caddesi 8,40.9921,28.8428,49,44,09:00-18:00,YOL ÜSTÜ,15,BAHÇELİEVLER,0
1522,Ebu Suut Caddesi 1,41.013,28.9764,40,39,08:00-18:00,YOL ÜSTÜ,0,FATİH,0
2147,EGS Blokları Açık Otoparkı,40.9863,28.8354,350,0,07:00-20:00,AÇIK OTOPARK,60,BAKIRKÖY,0
2173,Eminönü Cep Otoparkı,41.017,28.9761,30,17,08:00-19:00,YOL ÜSTÜ,0,FATİH,0
1132,Emirgan Korusu,41.1086,29.0528,300,286,08:00-21:00,AÇIK OTOPARK,0,SARIYER,0
1103,Emirgan Sahil 1,41.1073,29.0578,17,6,08:00-23:00,YOL ÜSTÜ,15,SARIYER,0
2645,Emirgan Sahil 2,41.106,29.0572,12,12,08:00-23:00,YOL ÜSTÜ,15,SARIYER,0
2646,Emirgan Sahil 3,41.1052,29.0569,15,15,08:00-23:00,YOL ÜSTÜ,15,SARIYER,0
2647,Emirgan Sahil 4,41.1044,29.0565,29,29,08:00-23:00,YOL ÜSTÜ,15,SARIYER,0
2648,Emirgan Sahil 5,41.1036,29.0563,29,20,08:00-23:00,YOL ÜSTÜ,15,SARIYER,0
97,Ergenekon Caddesi 1,41.0531,28.9833,40,40,08:00-18:00,YOL ÜSTÜ,15,ŞİŞLİ,0
2366,Esenler Adem Baştürk Kültür Merkezi Katlı,41.0387,28.8851,1000,430,24 Saat,KAPALI OTOPARK,15,ESENLER,1
3190,Esenler Havaalanı Mahallesi Zemin Altı Otoparkı,41.0562,28.8673,610,320,24 Saat,KAPALI OTOPARK,10,ESENLER,1
3011,Esenler Menderes Metro İstasyonu Yanı,41.0425,28.8782,120,14,24 Saat,AÇIK OTOPARK,5,ESENLER,1
2822,Esenler Menderes Parkı Zemin Altı Otoparkı,41.0413,28.873,316,0,24 Saat,KAPALI OTOPARK,10,ESENLER,1
1692,Eski Büyükdere Caddesi 1,41.0881,29.0063,30,14,08:00-17:00,YOL ÜSTÜ,15,KAĞITHANE,0
1693,Eski Büyükdere Caddesi 2,41.0889,29.006,30,26,08:00-17:00,YOL ÜSTÜ,15,KAĞITHANE,0
1328,Eski Salı Pazarı,40.9907,29.0333,760,392,24 Saat,AÇIK OTOPARK,20,KADIKÖY,1
845,Etyemez Tekkesi Sokak 1,41.0029,28.9368,59,59,08:00-17:00,YOL ÜSTÜ,15,FATİH,0
846,Etyemez Tekkesi Sokak 2,41.0029,28.9367,59,59,08:00-17:00,YOL ÜSTÜ,15,FATİH,0
848,Etyemez Tekkesi Sokak 4,41.0044,28.9363,59,59,08:00-17:00,YOL ÜSTÜ,15,FATİH,0
1829,Eyüp İstanbul Caddesi 1,41.1765,28.89,28,28,09:00-20:00,YOL ÜSTÜ,15,EYÜP,0
1830,Eyüp İstanbul Caddesi 2,41.1766,28.8876,21,21,09:00-20:00,YOL ÜSTÜ,15,EYÜP,0
1831,Eyüp İstanbul Caddesi 3,41.1768,28.887,31,31,09:00-20:00,YOL ÜSTÜ,15,EYÜP,0
1832,Eyüp İstanbul Caddesi 4,41.177,28.8866,21,17,09:00-20:00,YOL ÜSTÜ,15,EYÜP,0
1833,Eyüp İstanbul Caddesi 5,41.1772,28.8858,30,22,09:00-20:00,YOL ÜSTÜ,15,EYÜP,0
1834,Eyüp İstanbul Caddesi 6,41.1778,28.885,11,3,09:00-20:00,YOL ÜSTÜ,15,EYÜP,0
1835,Eyüp İstanbul Caddesi 7,41.1782,28.8847,31,31,09:00-20:00,YOL ÜSTÜ,15,EYÜP,0
1836,Eyüp İstanbul Caddesi 8,41.1782,28.8844,40,40,09:00-20:00,YOL ÜSTÜ,15,EYÜP,0
904,Eyüp Pierloti Caddesi 1,41.0542,28.933,40,22,09:00-22:00,YOL ÜSTÜ,0,EYÜP,0
905,Eyüp Pierloti Caddesi 2,41.0542,28.9329,40,40,09:00-22:00,YOL ÜSTÜ,0,EYÜP,0
1643,Eyüp Pierloti Caddesi 3,41.0554,28.9332,40,34,09:00-22:00,YOL ÜSTÜ,0,EYÜP,0
1782,Eyüp Tekke Parkı,41.0565,28.9398,100,93,08:00-19:00,AÇIK OTOPARK,15,EYÜP,0
2850,Eyüpsultan Akşemsettin Mahallesi Zemin Altı Otoparkı,41.0851,28.9258,110,0,24 Saat,KAPALI OTOPARK,15,EYÜP,1
2287,Fatih Akşemsettin Caddesi 1,41.022,28.9444,30,30,09:00-18:00,YOL ÜSTÜ,15,FATİH,0
2292,Fatih Akşemsettin Caddesi 2,41.0204,28.9416,30,15,09:00-18:00,YOL ÜSTÜ,15,FATİH,0
2288,Fatih Akşemsettin Caddesi 4,41.0212,28.9429,30,18,08:30-19:00,YOL ÜSTÜ,15,FATİH,0
2215,Fatih Çeşmesi Tabiat Parkı Otoparkı,41.169,28.9463,250,248,08:00-18:00,AÇIK OTOPARK,0,SARIYER,0
2275,Fatih Halıcılar Caddesi 1,41.0183,28.9482,40,33,09:00-17:30,YOL ÜSTÜ,15,FATİH,0
1475,Fatih Katlı Otoparkı,41.0197,28.9397,118,0,24 Saat,KAPALI OTOPARK,10,FATİH,1
2393,Fatih Kütüphane Açık Otoparkı 2,41.0167,28.9494,35,32,08:30-18:00,AÇIK OTOPARK,0,FATİH,0
2298,Fatih Mütercim Asım Caddesi 1,41.022,28.9443,45,24,09:00-18:00,YOL ÜSTÜ,15,FATİH,0
1574,Fatih Su Yolu Sokak 1,41.0162,28.9541,40,40,10:00-21:30,YOL ÜSTÜ,0,FATİH,0
1576,Fatih Su Yolu Sokak 3,41.0169,28.9536,40,40,10:00-21:30,YOL ÜSTÜ,0,FATİH,0
1598,Fatih Uzunçarşı Caddesi 1,41.0154,28.9675,30,30,07:00-18:00,YOL ÜSTÜ,0,FATİH,0
1591,Feshane P+R Açık Otoparkı,41.0458,28.9375,200,106,24 Saat,AÇIK OTOPARK,15,EYÜP,1
717,Fevzipaşa Caddesi 10,41.0188,28.9482,30,6,08:30-17:30,YOL ÜSTÜ,15,FATİH,0
719,Fevzipaşa Caddesi 12,41.02,28.9473,30,11,08:30-17:30,YOL ÜSTÜ,15,FATİH,0
722,Fevzipaşa Caddesi 15,41.0208,28.9463,30,19,08:30-17:30,YOL ÜSTÜ,15,FATİH,0
724,Fevzipaşa Caddesi 17,41.0217,28.9453,30,30,08:30-17:30,YOL ÜSTÜ,15,FATİH,0
725,Fevzipaşa Caddesi 18,41.0227,28.9442,30,18,08:30-17:30,YOL ÜSTÜ,15,FATİH,0
709,Fevzipaşa Caddesi 2,41.0161,28.9515,25,16,08:30-17:30,YOL ÜSTÜ,15,FATİH,0
711,Fevzipaşa Caddesi 4,41.0166,28.9507,26,15,08:30-17:30,YOL ÜSTÜ,15,FATİH,0
715,Fevzipaşa Caddesi 8,41.0178,28.9493,17,10,08:30-17:30,YOL ÜSTÜ,15,FATİH,0
716,Fevzipaşa Caddesi 9,41.0182,28.9489,30,30,08:30-17:30,YOL ÜSTÜ,15,FATİH,0
1005,Florya Havuzlu Bahçe,40.9764,28.7908,135,135,08:00-18:00,AÇIK OTOPARK,0,BAKIRKÖY,0
2238,Florya Sosyal Tesisleri,40.9617,28.8092,1074,1047,24 Saat,AÇIK OTOPARK,15,BAKIRKÖY,1
646,Fuat Paşa Caddesi 2,41.0129,28.966,40,40,07:00-18:00,YOL ÜSTÜ,0,FATİH,0
1701,Gazi Umur Paşa Sokak 2,41.0609,29.012,40,21,08:00-17:30,YOL ÜSTÜ,15,BEŞİKTAŞ,0
1705,Gazi Umur Paşa Sokak 6,41.0586,29.0109,42,42,08:00-17:30,YOL ÜSTÜ,15,BEŞİKTAŞ,0
2971,Gaziosmanpaşa Zemin Altı Otoparkı,41.0795,28.8854,285,0,24 Saat,KAPALI OTOPARK,0,GAZİOSMANPAŞA,1
203,Gonca Esnaf Önü 1,41.076,29.0167,23,14,08:00-18:00,YOL ÜSTÜ,15,BEŞİKTAŞ,0
205,Gonca Sokak 1,41.0761,29.017,16,16,08:00-18:00,YOL ÜSTÜ,15,BEŞİKTAŞ,0
2242,Gözdağı Sosyal Tesisler  Açık Otoparkı,40.8908,29.2532,300,287,24 Saat,AÇIK OTOPARK,15,PENDİK,1
1879,Gülsuyu Metro Yer Altı Otoparkı,40.9238,29.155,76,0,08:00-00:00,KAPALI OTOPARK,15,MALTEPE,1
3277,Gülsuyu Metro Yol Üstü 1,40.9236,29.1548,55,55,09:00-19:00,YOL ÜSTÜ,15,MALTEPE,0
3278,Gülsuyu Metro Yol Üstü 2,40.9233,29.1559,55,42,09:00-19:00,YOL ÜSTÜ,15,MALTEPE,0
1423,Güneş Plajı 1,40.9716,28.7904,250,241,24 Saat,AÇIK OTOPARK,10,BAKIRKÖY,1
1461,Güneş Plajı 2,40.9727,28.7869,135,125,08:00-20:00,AÇIK OTOPARK,10,BAKIRKÖY,0
1339,Güneş Sokak Çıkmazı 1,41.0869,29.0077,40,40,09:00-18:00,YOL ÜSTÜ,15,BEŞİKTAŞ,0
3053,Güngören Nikah Dairesi Zemin Altı otoparkı,41.0364,28.8719,147,0,24 Saat,KAPALI OTOPARK,5,GÜNGÖREN,1
1207,Güngören Sancaktepe Açık Otoparkı,41.0204,28.8869,100,99,08:00-19:00,AÇIK OTOPARK,0,GÜNGÖREN,0
2216,Gürpınar Balık Hali Otoparkı,40.9673,28.6021,1000,802,24 Saat,AÇIK OTOPARK,15,BEYLİKDÜZÜ,1
609,Güvenlik Caddesi 1,41.007,28.9567,35,35,08:00-17:00,YOL ÜSTÜ,0,FATİH,0
1278,Hacı Pervane Caddesi 1,41.0744,28.2478,35,29,09:00-17:00,YOL ÜSTÜ,15,SİLİVRİ,0
1279,Hacı Pervane Caddesi 2,41.0746,28.2472,35,25,09:00-17:00,YOL ÜSTÜ,15,SİLİVRİ,0
1525,Hacıosman Metro Yer Altı Otoparkı,41.1402,29.0305,422,203,24 Saat,KAPALI OTOPARK,15,SARIYER,1
226,Hakimiyet-i Milliye Caddesi 2,41.0225,29.016,25,16,08:00-18:00,YOL ÜSTÜ,15,ÜSKÜDAR,0
1470,Haldun Alagaş Katlı Otoparkı,41.0261,29.1051,197,162,24 Saat,KAPALI OTOPARK,15,ÜMRANİYE,1
2848,Halkalı Mahallesi Zemin Altı Otoparkı,41.0358,28.7848,347,33,24 Saat,KAPALI OTOPARK,15,KÜÇÜKÇEKMECE,1
2838,Hamidiye Mahallesi Katlı Otoparkı,41.0949,28.971,450,326,24 Saat,KAPALI OTOPARK,15,KAĞITHANE,1
1707,Harbiye Nizamiye Caddesi Yol Üstü Otoparkı 2,41.0573,29.0111,33,33,08:00-19:00,YOL ÜSTÜ,15,ŞİŞLİ,0
1446,Harbiye Zemin Altı Otoparkı,41.0405,28.9879,142,83,24 Saat,KAPALI OTOPARK,0,BEYOĞLU,1
824,Hasanpaşa Muhtarlık Açık Otoparkı,40.9974,29.0429,100,77,08:00-21:00,AÇIK OTOPARK,0,KADIKÖY,0
1481,Haseki Caddesi 1,41.0091,28.944,32,32,08:00-17:00,YOL ÜSTÜ,15,FATİH,0
2148,Hat Boyu Caddesi 1,40.8801,29.234,24,24,09:00-18:00,YOL ÜSTÜ,15,PENDİK,0
390,Haydar Aliyev Caddesi 1,41.1396,29.0578,23,5,09:00-20:00,YOL ÜSTÜ,15,SARIYER,0
391,Haydar Aliyev Caddesi 2,41.144,29.0552,27,26,09:00-20:00,YOL ÜSTÜ,15,SARIYER,0
392,Haydar Aliyev Caddesi 3,41.1487,29.0454,18,18,09:00-20:00,YOL ÜSTÜ,15,SARIYER,0
393,Haydar Aliyev Caddesi 4,41.1504,29.0434,40,28,09:00-20:00,YOL ÜSTÜ,15,SARIYER,0
2655,Haydar Aliyev Caddesi 5,41.1528,29.0412,48,37,09:00-20:00,YOL ÜSTÜ,15,SARIYER,0
2332,Haydarpaşa Katlı Otoparkı,41.0051,29.0255,840,696,24 Saat,KAPALI OTOPARK,15,ÜSKÜDAR,1
1987,Haznedar Yer Altı Otoparkı,41.0083,28.8729,540,0,24 Saat,KAPALI OTOPARK,0,GÜNGÖREN,1
377,Hızır Külhani Sokak,41.0202,28.9605,32,17,08:00-17:00,YOL ÜSTÜ,15,FATİH,0
1166,Hidiv Kasrı,41.1035,29.0755,150,137,09:00-21:00,AÇIK OTOPARK,15,BEYKOZ,0
924,Horhor Caddesi Üzeri Cep 1,41.0142,28.9519,40,18,07:00-17:00,YOL ÜSTÜ,15,FATİH,0
3173,Hürriyet Mahallesi Zeminaltı Otoparkı,41.0708,28.895,190,0,24 Saat,KAPALI OTOPARK,15,GAZİOSMANPAŞA,1
45,Hüsrev Gerede Sokak 1,41.0484,28.995,50,23,08:00-19:00,YOL ÜSTÜ,15,ŞİŞLİ,0
46,Hüsrev Gerede Sokak 2,41.0481,28.9954,70,70,08:00-19:00,YOL ÜSTÜ,15,ŞİŞLİ,0
154,Ihlamur Dere Caddesi 1,41.0438,29.0035,27,6,09:00-18:00,YOL ÜSTÜ,15,BEŞİKTAŞ,0
155,Ihlamur Dere Caddesi 2,41.0444,29.003,27,12,09:00-18:00,YOL ÜSTÜ,15,BEŞİKTAŞ,0
158,Ihlamur Dere Caddesi 5,41.0461,29.0026,27,2,09:00-18:00,YOL ÜSTÜ,15,BEŞİKTAŞ,0
159,Ihlamur Dere Caddesi 6,41.0464,29.0024,27,12,09:00-18:00,YOL ÜSTÜ,15,BEŞİKTAŞ,0
160,Ihlamur Dere Caddesi 7,41.047,29.0023,27,11,09:00-18:00,YOL ÜSTÜ,15,BEŞİKTAŞ,0
162,Ihlamur Dere Caddesi 9,41.0484,29.0022,27,19,09:00-18:00,YOL ÜSTÜ,15,BEŞİKTAŞ,0
1168,İ.M.P Önü 1,41.0318,28.9747,200,183,08:00-05:00,AÇIK OTOPARK,0,BEYOĞLU,1
1189,İçerenköy Sebze Meyve Hali Otoparkı,40.9766,29.1045,600,599,24 Saat,AÇIK OTOPARK,15,ATAŞEHİR,1
1542,İkinci Keskin Kalem Sokak 1,41.0696,29.0066,40,40,07:00-17:00,YOL ÜSTÜ,0,ŞİŞLİ,0
352,İmç Önü 1,41.0171,28.9569,28,28,08:30-18:30,YOL ÜSTÜ,15,FATİH,0
353,İmç Önü 2,41.0177,28.9574,30,24,08:30-18:30,YOL ÜSTÜ,15,FATİH,0
356,İmç Önü 5,41.0187,28.958,35,28,08:30-18:30,YOL ÜSTÜ,15,FATİH,0
907,İmç Önü 8,41.0201,28.9591,35,32,08:30-18:30,YOL ÜSTÜ,15,FATİH,0
504,İmran Öktem Yol Üstü Otoparkı 1,41.0067,28.9736,75,59,07:00-19:00,YOL ÜSTÜ,0,FATİH,0
505,İmran Öktem Yol Üstü Otoparkı 2,41.0073,28.9742,105,105,07:00-19:00,YOL ÜSTÜ,0,FATİH,0
1127,İshakpaşa Caddesi,41.0081,28.9815,200,198,08:00-19:00,YOL ÜSTÜ,0,FATİH,0
3265,İspark İstanbul West Marina Açık Otoparkı 1,40.9633,28.656,250,244,24 Saat,AÇIK OTOPARK,15,BEYLİKDÜZÜ,1
2793,İspark Merter Katlı Otoparkı,41.0038,28.8897,900,707,24 Saat,KAPALI OTOPARK,10,GÜNGÖREN,1
2888,İspark Tüyap Açık Otopark,41.0241,28.6239,1100,1100,06:00-19:00,AÇIK OTOPARK,0,BÜYÜKÇEKMECE,0
2430,İspark West İstanbul Marina Açık Otoparkı,40.9639,28.6591,1750,421,24 Saat,AÇIK OTOPARK,15,BEYLİKDÜZÜ,1
378,İstinye 1 ( Hastane Önü ),41.1146,29.0552,25,11,08:00-17:30,YOL ÜSTÜ,15,SARIYER,0
380,İstinye 3 ( Hastane Karşısı ),41.115,29.0562,25,25,08:00-17:30,YOL ÜSTÜ,15,SARIYER,0
381,İstinye 4 ( Cami Önü ),41.115,29.057,25,16,08:00-17:30,YOL ÜSTÜ,15,SARIYER,0
382,İstinye 5 ( Köşk Önü ),41.1145,29.0586,30,30,08:00-17:30,YOL ÜSTÜ,15,SARIYER,0
1804,İtalyan Hastanesi Karşısı Açık Otoparkı 1,41.0281,28.9816,30,26,09:00-20:00,AÇIK OTOPARK,0,BEYOĞLU,0
507,Kabasakal Medrese Önü,41.0062,28.9789,65,65,08:00-21:00,AÇIK OTOPARK,0,FATİH,0
349,Kabataş Set Üstü 2,41.0355,28.9932,80,80,08:00-19:00,YOL ÜSTÜ,15,BEYOĞLU,0
1464,Kadıköy Açık Otoparkı,40.99,29.0184,1004,786,24 Saat,AÇIK OTOPARK,15,KADIKÖY,1
3079,Kadıköy Bora Sokak Yolüstü Otoparkı,40.9906,29.0755,26,26,07:30-16:30,YOL ÜSTÜ,15,KADIKÖY,0
687,Kadıköy Eğitim Mahallesi Açık Otoparkı,40.9924,29.0426,50,38,08:00-21:00,AÇIK OTOPARK,0,KADIKÖY,0
2918,Kadıköy Hasanpaşa Gazhane Katlı Otoparkı,40.9972,29.0429,310,239,06:30-23:00,KAPALI OTOPARK,15,KADIKÖY,0
1447,Kadıköy İski Açık Otoparkı,40.9874,29.0208,124,65,24 Saat,AÇIK OTOPARK,15,KADIKÖY,1
3054,Kadıköy Kalamış Parkı Açık Otoparkı,40.9693,29.0362,35,35,07:00-23:00,AÇIK OTOPARK,15,KADIKÖY,0
2989,Kadıköy Kurbağalıdere Caddesi,40.9941,29.0369,38,30,09:00-17:00,YOL ÜSTÜ,15,KADIKÖY,0
2807,Kadıköy Metro 2 Açık Otoparkı,40.989,29.0209,66,15,24 Saat,AÇIK OTOPARK,15,KADIKÖY,1
1655,Kadıköy Metro Açık Otoparkı,40.9899,29.0216,74,39,24 Saat,AÇIK OTOPARK,15,KADIKÖY,1
2015,Kadıköy Metro Yol Üstü 1,40.9905,29.0218,25,3,07:00-23:00,YOL ÜSTÜ,15,KADIKÖY,0
3165,Kadıköy Metro Yol üstü 2,40.99,29.0217,13,1,07:00-23:00,YOL ÜSTÜ,15,KADIKÖY,0
2975,Kadıköy Sahil Açık Otopark,40.9911,29.0218,45,27,24 Saat,AÇIK OTOPARK,5,KADIKÖY,1
2879,Kadıköy Yekta Sokak Göztepe E 5 Yanı 2,40.9904,29.076,48,31,07:30-17:00,YOL ÜSTÜ,15,KADIKÖY,0
2808,Kadıköy Yeni Salı Pazarı Katlı Otoparkı,40.9978,29.0501,1350,618,24 Saat,KAPALI OTOPARK,15,KADIKÖY,1
2811,Kağıthane Harmantepe Zemin Altı Otoparkı,41.0814,28.991,200,19,24 Saat,KAPALI OTOPARK,0,KAĞITHANE,1
1452,Kalamış Açık Otoparkı,40.9686,29.036,173,148,24 Saat,AÇIK OTOPARK,15,KADIKÖY,1
1321,Kalamış Fener Caddesi 1,40.9724,29.0399,40,40,09:00-20:00,YOL ÜSTÜ,15,KADIKÖY,0
561,Kanlıca Barış Manço Caddesi 1,41.1001,29.0662,18,11,09:00-18:00,YOL ÜSTÜ,15,BEYKOZ,0
200,Karakol Caddesi 1,41.0754,29.0164,18,16,08:00-18:00,YOL ÜSTÜ,15,BEŞİKTAŞ,0
314,Karaköy Balıkçılar Önü,41.022,28.9741,70,70,08:00-00:00,AÇIK OTOPARK,15,BEYOĞLU,1
313,Karaköy Meydan,41.0232,28.9753,16,16,08:00-18:00,YOL ÜSTÜ,15,BEYOĞLU,0
1064,Kartal Balıkçılar Açık,40.8872,29.1884,100,81,08:00-18:00,AÇIK OTOPARK,0,KARTAL,0
1474,Kartal Hasan Doğan Spor Kompleksi,40.8925,29.1899,773,0,24 Saat,KAPALI OTOPARK,15,KARTAL,1
511,Kartal Hürriyet Caddesi 2,40.8891,29.1863,30,30,08:00-18:00,YOL ÜSTÜ,15,KARTAL,0
513,Kartal Hürriyet Caddesi 4,40.8895,29.1884,30,30,08:00-18:00,YOL ÜSTÜ,15,KARTAL,0
1105,Kartal İdo Açık Otoparkı,40.8873,29.1881,90,66,24 Saat,AÇIK OTOPARK,15,KARTAL,1
1550,Kartal Sahil Açık Otoparkı,40.8873,29.1902,75,67,24 Saat,AÇIK OTOPARK,5,KARTAL,1
516,Kartal Savarona Caddesi 1,40.8872,29.1831,50,50,09:00-18:00,YOL ÜSTÜ,15,KARTAL,0
533,Kartal Üsküdar Caddesi 2,40.8891,29.1835,50,50,09:00-18:00,YOL ÜSTÜ,15,KARTAL,0
1810,Kartal Üsküdar Caddesi 4,40.8892,29.1829,60,60,09:00-18:00,YOL ÜSTÜ,15,KARTAL,0
2532,Kartal Üsküdar Caddesi 5,40.8891,29.1829,50,50,09:00-18:00,YOL ÜSTÜ,15,KARTAL,0
928,Kasım Sokak 1,41.009,28.8856,50,50,08:00-19:00,YOL ÜSTÜ,15,GÜNGÖREN,0
929,Kasım Sokak 2,41.0092,28.8863,50,46,08:00-19:00,YOL ÜSTÜ,15,GÜNGÖREN,0
930,Kasım Sokak 3,41.0095,28.8881,50,50,08:00-19:00,YOL ÜSTÜ,15,GÜNGÖREN,0
932,Kasım Sokak 5,41.0101,28.8895,50,47,08:00-19:00,YOL ÜSTÜ,15,GÜNGÖREN,0
933,Kasım Sokak 6,41.0102,28.8899,50,50,08:00-23:00,YOL ÜSTÜ,15,GÜNGÖREN,0
2231,Kasımpaşa Sosyal Tesisler Otoparkı,41.0299,28.9669,60,55,08:00-23:00,AÇIK OTOPARK,15,BEYOĞLU,0
2827,Kayaşehir Meydan Zemin Altı Otoparkı,41.1187,28.7709,654,648,24 Saat,KAPALI OTOPARK,0,BAŞAKŞEHİR,1
452,Kazım Özalp Sokak 2,40.9598,29.0734,40,40,08:45-19:00,YOL ÜSTÜ,15,KADIKÖY,0
454,Kazım Özalp Sokak 4,40.9612,29.0749,40,32,08:45-19:00,YOL ÜSTÜ,15,KADIKÖY,0
456,Kazım Özalp Sokak 6,40.962,29.0758,50,50,08:45-19:00,YOL ÜSTÜ,15,KADIKÖY,0
1960,Kazlıçeşme Marmaray Açık Otoparkı,40.9922,28.9165,700,445,24 Saat,AÇIK OTOPARK,15,ZEYTİNBURNU,1
440,Kepenekçi Yokuşu-Odun Kapısı Yokuşu 1,41.0171,28.9663,30,22,07:00-18:00,YOL ÜSTÜ,0,FATİH,0
922,Kıztaşı Caddesi 1,41.0162,28.9509,40,17,08:30-17:00,YOL ÜSTÜ,15,FATİH,0
923,Kıztaşı Caddesi 2,41.0157,28.9505,40,24,08:30-17:00,YOL ÜSTÜ,15,FATİH,0
2994,Kirazlı Metro Durağı P+R,41.0311,28.8422,650,0,24 Saat,AÇIK OTOPARK,5,BAĞCILAR,1
2449,Kozyatağı Sebze-Meyve Hali,40.9787,29.1029,1500,1500,24 Saat,AÇIK OTOPARK,0,ATAŞEHİR,1
112,Kurtuluş Caddesi 3,41.0507,28.9828,40,40,08:00-18:00,YOL ÜSTÜ,15,ŞİŞLİ,0
114,Kurtuluş Caddesi 5,41.0489,28.9813,40,23,08:00-18:00,YOL ÜSTÜ,15,ŞİŞLİ,0
1205,Kutlugün Sokak 1,41.007,28.9811,200,191,08:00-19:00,YOL ÜSTÜ,0,FATİH,0
1572,Küçük Ayasofya Caddesi,41.0031,28.9726,50,38,07:30-18:00,YOL ÜSTÜ,0,FATİH,0
3074,Küçük Çamlıca,41.0206,29.0653,129,119,08:00-22:00,AÇIK OTOPARK,0,ÜSKÜDAR,0
3127,Küçükçekmece Cennet Mahallesi Meydan Zemin Altı Otoparkı,40.9906,28.7834,456,0,24 Saat,KAPALI OTOPARK,0,KÜÇÜKÇEKMECE,1
2554,Küçükçekmece Fevzi Çakmak Meydanı Zemin Altı Otoparkı,41.0085,28.7933,1000,0,24 Saat,KAPALI OTOPARK,10,KÜÇÜKÇEKMECE,1
967,Küçüksu Caddesi 1,41.0793,29.0654,27,26,09:00-20:00,YOL ÜSTÜ,15,BEYKOZ,0
968,Küçüksu Caddesi 2,41.0797,29.0655,27,16,09:00-20:00,YOL ÜSTÜ,15,BEYKOZ,0
970,Küçüksu Caddesi 4,41.0802,29.0659,27,9,09:00-20:00,YOL ÜSTÜ,15,BEYKOZ,0
972,Küçüksu Caddesi 6,41.0816,29.0675,27,7,09:00-20:00,YOL ÜSTÜ,15,BEYKOZ,0
2882,Küçüksu Kasrı Açık Otoparkı,41.0786,29.0656,98,95,07:00-23:00,AÇIK OTOPARK,0,BEYKOZ,0
1585,Levent Büyükdere Caddesi 1,41.0778,29.0137,30,30,09:00-18:00,YOL ÜSTÜ,15,BEŞİKTAŞ,0
1586,Levent Büyükdere Caddesi 2,41.0773,29.014,30,17,09:00-18:00,YOL ÜSTÜ,15,BEŞİKTAŞ,0
2598,Levent Büyükdere Caddesi 3,41.0756,29.0147,30,30,09:00-18:00,YOL ÜSTÜ,15,BEŞİKTAŞ,0
2599,Levent Büyükdere Caddesi 4,41.0763,29.0145,30,18,09:00-18:00,YOL ÜSTÜ,15,BEŞİKTAŞ,0
206,Levent Çarşı 1,41.0761,29.0161,23,3,08:00-18:00,YOL ÜSTÜ,15,BEŞİKTAŞ,0
207,Levent Çarşı 2,41.0758,29.0153,23,8,08:00-18:00,YOL ÜSTÜ,15,BEŞİKTAŞ,0
208,Levent Dünya Göz Önü 1,41.0731,29.0181,19,13,08:00-18:00,YOL ÜSTÜ,15,BEŞİKTAŞ,0
220,Levent Hamidiye,41.0861,29.0076,100,63,08:00-19:00,AÇIK OTOPARK,0,BEŞİKTAŞ,0
1138,Levent Metro Yer Altı Otoparkı,41.0811,29.0107,100,98,07:30-19:30,KAPALI OTOPARK,5,BEŞİKTAŞ,0
2798,Maçka Açık Otoparkı,41.0458,28.991,110,93,09:00-19:00,AÇIK OTOPARK,0,ŞİŞLİ,0
78,Maçka Caddesi 1,41.0466,28.993,40,30,07:00-00:00,YOL ÜSTÜ,15,ŞİŞLİ,1
79,Maçka Caddesi 2,41.046,28.993,40,31,07:00-00:00,YOL ÜSTÜ,15,ŞİŞLİ,1
80,Maçka Caddesi 3,41.0453,28.9936,30,30,07:00-00:00,YOL ÜSTÜ,15,ŞİŞLİ,1
81,Maçka Caddesi 4,41.0459,28.9942,40,23,07:00-00:00,YOL ÜSTÜ,15,ŞİŞLİ,1
82,Maçka Caddesi 5,41.0467,28.9943,50,44,07:00-00:00,YOL ÜSTÜ,15,ŞİŞLİ,1
83,Maçka Caddesi 6,41.0478,28.9945,50,46,07:00-00:00,YOL ÜSTÜ,15,ŞİŞLİ,1
1521,Maçka Caddesi Teleferik Önü 1,41.0444,28.9946,29,29,07:30-00:00,YOL ÜSTÜ,0,ŞİŞLİ,1
1859,Maçka Katlı Otoparkı,41.0481,28.9902,508,373,24 Saat,KAPALI OTOPARK,0,ŞİŞLİ,1
1988,Maltepe Orhangazi Şehir Parkı Açık Otoparkı 1,40.9313,29.1161,5022,4718,24 Saat,AÇIK OTOPARK,15,MALTEPE,1
1289,Maltepe Rıhtım Caddesi 1,40.9238,29.1265,50,45,11:00-22:00,YOL ÜSTÜ,15,MALTEPE,0
1362,Maltepe Rıhtım Caddesi 2,40.9244,29.1259,50,29,11:00-22:00,YOL ÜSTÜ,15,MALTEPE,0
1364,Maltepe Rıhtım Caddesi 4,40.9229,29.1271,50,48,11:00-22:00,YOL ÜSTÜ,15,MALTEPE,0
3193,Maltepe Rıhtım Caddesi Açık Otoparkı,40.9254,29.1242,76,64,24 Saat,AÇIK OTOPARK,0,MALTEPE,1
1686,Maslak Dereboyu Caddesi 1,41.1144,29.0242,60,60,07:00-18:00,YOL ÜSTÜ,15,SARIYER,0
260,Maslak G-39 1,41.1092,29.0172,29,6,06:30-17:00,YOL ÜSTÜ,15,SARIYER,0
1599,Maslak P+R,41.1165,29.0241,150,112,24 Saat,AÇIK OTOPARK,10,SARIYER,1
2100,Matbaacılar Sitesi Yanı,41.0235,28.9186,250,21,24 Saat,AÇIK OTOPARK,5,ZEYTİNBURNU,1
2300,Mecidiyeköy Oğuz Sokak 1,41.0679,29.0003,20,17,08:00-18:00,YOL ÜSTÜ,15,ŞİŞLİ,0
920,Meclis-i Mebusan Yokuşu 2,41.0323,28.9884,30,16,09:00-17:00,YOL ÜSTÜ,15,BEYOĞLU,0
1546,Menekşe Plajı Açık Otoparkı,40.9762,28.7767,200,188,24 Saat,AÇIK OTOPARK,10,BAKIRKÖY,1
1376,Mercan Açık,41.0135,28.9669,250,249,08:00-23:00,AÇIK OTOPARK,5,FATİH,0
1472,Merter Katlı Otoparkı,41.0092,28.8874,1000,954,24 Saat,KAPALI OTOPARK,10,GÜNGÖREN,1
1235,Merter Metro P+R,41.0074,28.8963,300,244,24 Saat,AÇIK OTOPARK,10,GÜNGÖREN,1
2375,Merter Metro Zeminaltı Otoparkı,41.0037,28.8898,242,0,24 Saat,KAPALI OTOPARK,10,GÜNGÖREN,1
1568,Mete Caddesi 1,41.0382,28.988,30,17,07:30-23:30,YOL ÜSTÜ,15,BEYOĞLU,0
198,Metrocity Önü 1,41.0765,29.0141,20,9,07:00-17:00,YOL ÜSTÜ,15,ŞİŞLİ,0
1471,Mevlana Yeraltı Katlı Otoparkı,41.0057,28.9046,1000,726,24 Saat,KAPALI OTOPARK,5,ZEYTİNBURNU,1
221,Meydan Otoparkı Akçam Sokak,41.0863,29.0078,30,21,08:00-18:00,YOL ÜSTÜ,15,BEŞİKTAŞ,0
2709,Millet Caddesi Açık Otoparkı,41.01,28.9462,60,0,24 Saat,AÇIK OTOPARK,15,FATİH,1
76,Mim Kemal Öke Caddesi 1,41.0501,28.9904,40,40,07:00-23:00,YOL ÜSTÜ,0,ŞİŞLİ,0
77,Mim Kemal Öke Caddesi 2,41.0494,28.9912,40,31,07:00-23:00,YOL ÜSTÜ,0,ŞİŞLİ,0
3152,Mimar Sinan Zemin Altı Otoparkı,41.0222,29.0169,956,573,24 Saat,KAPALI OTOPARK,15,ÜSKÜDAR,1
2870,Miniatürk Çadır Açık Otoparkı,41.0587,28.9502,250,173,07:00-21:00,AÇIK OTOPARK,15,BEYOĞLU,0
619,Misbah Sokak 1,40.9892,29.022,21,10,09:00-21:00,YOL ÜSTÜ,15,KADIKÖY,0
2556,Muallim Naci Açık Otoparkı,41.0562,29.0343,35,8,24 Saat,AÇIK OTOPARK,15,BEŞİKTAŞ,1
1609,Münir Nurettin Selçuk Caddesi 1,40.9798,29.0392,50,47,09:00-19:00,YOL ÜSTÜ,15,KADIKÖY,0
1608,Münir Nurettin Selçuk Caddesi 2,40.98,29.0391,30,30,09:00-19:00,YOL ÜSTÜ,15,KADIKÖY,0
1616,Münir Nurettin Selçuk Caddesi 3,40.9791,29.0397,30,30,09:00-19:00,YOL ÜSTÜ,15,KADIKÖY,0
137,Müselles Sokak 1,41.068,29.0121,40,10,07:00-17:00,YOL ÜSTÜ,15,ŞİŞLİ,0
1380,Nadide Sokak 1,41.0094,28.8908,45,45,08:00-18:00,YOL ÜSTÜ,15,GÜNGÖREN,0
2117,Nadide Sokak 2,41.0082,28.8918,45,39,08:00-18:00,YOL ÜSTÜ,15,GÜNGÖREN,0
2118,Nadide Sokak 3,41.0078,28.8921,45,44,08:00-18:00,YOL ÜSTÜ,15,GÜNGÖREN,0
594,Nakilbent Sokak,41.004,28.9743,80,80,07:00-19:00,YOL ÜSTÜ,0,FATİH,0
196,Nispetiye Caddesi 1,41.0753,29.0182,23,13,08:00-18:00,YOL ÜSTÜ,15,BEŞİKTAŞ,0
2165,Nispetiye Caddesi Açık Otoparkı,41.0735,29.0177,90,85,08:00-19:00,AÇIK OTOPARK,0,BEŞİKTAŞ,0
569,Oda Kule Önü 1,41.0323,28.9751,24,10,08:00-01:00,YOL ÜSTÜ,0,BEYOĞLU,1
290,Okçu Musa 1,41.0273,28.9716,25,16,08:00-18:00,YOL ÜSTÜ,15,BEYOĞLU,0
152,Ortabahçe Caddesi 2,41.0428,29.0043,35,19,08:00-23:00,YOL ÜSTÜ,15,BEŞİKTAŞ,0
153,Ortabahçe Caddesi 3,41.0433,29.0038,26,26,08:00-23:00,YOL ÜSTÜ,15,BEŞİKTAŞ,0
119,Ortaklar Caddesi 1,41.0637,28.997,22,14,08:00-18:00,YOL ÜSTÜ,15,ŞİŞLİ,0
572,Ortaköy Portakal Yokuşu 1,41.0506,29.0268,15,3,09:00-20:00,YOL ÜSTÜ,15,BEŞİKTAŞ,0
1039,Öğretmen Evi,40.9722,28.7142,80,48,14:00-22:00,AÇIK OTOPARK,0,AVCILAR,0
1249,Paşalimanı Caddesi 1,41.0324,29.0235,30,30,08:00-16:30,YOL ÜSTÜ,0,ÜSKÜDAR,0
1246,Paşalimanı Sosyal Tesis Önü 1,41.0333,29.025,26,26,09:00-18:00,YOL ÜSTÜ,0,ÜSKÜDAR,0
1055,Pendik 23 Nisan Caddesi 1,40.878,29.2363,35,35,09:00-18:00,YOL ÜSTÜ,15,PENDİK,0
1056,Pendik 23 Nisan Caddesi 2,40.8777,29.2356,40,40,09:00-18:00,YOL ÜSTÜ,15,PENDİK,0
1057,Pendik 23 Nisan Caddesi 3,40.8774,29.2348,35,19,09:00-18:00,YOL ÜSTÜ,15,PENDİK,0
1657,Pendik Ankara Caddesi 3,40.8771,29.2361,26,26,09:00-18:00,YOL ÜSTÜ,15,PENDİK,0
1466,Pendik Katlı Otoparkı,40.8789,29.2342,120,0,24 Saat,KAPALI OTOPARK,15,PENDİK,1
3073,Pendik Kemal Kalkuz Parkı Zemin Altı Otoparkı,40.8884,29.2426,224,99,09:00-18:00,KAPALI OTOPARK,0,PENDİK,0
545,Pendik Lokman Hekim Caddesi 1,40.8794,29.2352,25,25,09:00-18:00,YOL ÜSTÜ,15,PENDİK,0
547,Pendik Lokman Hekim Caddesi 3,40.8789,29.2355,25,25,09:00-18:00,YOL ÜSTÜ,15,PENDİK,0
1973,Pendik Marina 2,40.8733,29.2336,51,42,08:00-18:00,YOL ÜSTÜ,15,PENDİK,0
3007,Pendik Marina Önü Açık Otoparkı,40.8732,29.2336,104,101,10:00-18:00,AÇIK OTOPARK,0,PENDİK,0
3019,Pendik Meydan Zemin Altı Otoparkı,40.8752,29.2327,937,0,24 Saat,KAPALI OTOPARK,0,PENDİK,1
2865,Pendik Sahil Engelliler Merkez Önü,40.8734,29.2331,100,73,11:00-19:00,AÇIK OTOPARK,0,PENDİK,0
2434,Pendik Sahil İdo,40.8755,29.237,100,0,24 Saat,AÇIK OTOPARK,15,PENDİK,1
248,Pendik Yenimahalle Açık 2 Otoparkı,40.8642,29.2723,124,0,10:00-21:00,AÇIK OTOPARK,15,PENDİK,0
297,Perşembe Pazarı 1,41.0235,28.9709,32,32,08:00-18:00,YOL ÜSTÜ,15,BEYOĞLU,0
593,Pierre Loti Caddesi 2,41.0055,28.9691,45,31,07:00-17:30,YOL ÜSTÜ,0,FATİH,0
320,Poyraz Yol Üstü 4,40.9931,29.0405,45,36,08:00-21:00,YOL ÜSTÜ,0,KADIKÖY,0
321,Poyraz Yol Üstü 5,40.9921,29.0404,40,40,08:00-21:00,YOL ÜSTÜ,0,KADIKÖY,0
1388,Poyrazlı Sokak 1,41.0092,28.8887,50,45,08:00-18:00,YOL ÜSTÜ,15,GÜNGÖREN,0
1405,Poyrazlı Sokak 2,41.0096,28.8902,50,46,08:00-18:00,YOL ÜSTÜ,15,GÜNGÖREN,0
1406,Poyrazlı Sokak 3,41.0098,28.8906,50,46,08:00-18:00,YOL ÜSTÜ,15,GÜNGÖREN,0
44,Prof. Dr.Orhan Ersek Sokak 3,41.0515,28.9948,40,40,08:00-18:00,YOL ÜSTÜ,15,ŞİŞLİ,0
421,Prof.Cemil Birsel Yokuşu 1,41.0179,28.9669,40,27,07:00-18:00,YOL ÜSTÜ,0,FATİH,0
422,Prof.Cemil Birsel Yokuşu 2,41.0173,28.9668,40,23,07:00-18:00,YOL ÜSTÜ,0,FATİH,0
424,Prof.Cemil Birsel Yokuşu 4,41.018,28.9671,40,38,07:00-18:00,YOL ÜSTÜ,0,FATİH,0
187,Prof.Dr.Ahmet Kemal Aru Caddesi 1,41.0815,29.0121,40,40,07:00-16:00,YOL ÜSTÜ,15,BEŞİKTAŞ,0
188,Prof.Dr.Ahmet Kemal Aru Caddesi 2,41.0815,29.0128,40,37,07:00-16:00,YOL ÜSTÜ,15,BEŞİKTAŞ,0
189,Prof.Dr.Ahmet Kemal Aru Caddesi 3,41.0815,29.0119,30,6,07:00-16:00,YOL ÜSTÜ,15,BEŞİKTAŞ,0
598,Ptt Önü 1,40.9896,29.0219,33,33,07:00-23:00,YOL ÜSTÜ,15,KADIKÖY,0
1900,Ragıp Gümüşpala Cad.(Sobacılar Önü),41.0181,28.969,48,48,07:00-18:00,YOL ÜSTÜ,15,FATİH,0
415,Ragıp Gümüşpala Camii Önü 1,41.021,28.9628,40,33,07:00-19:00,YOL ÜSTÜ,0,FATİH,0
3266,Refik Saydam Caddesi 1,41.0318,28.9735,15,9,07:00-01:00,YOL ÜSTÜ,0,BEYOĞLU,1
3267,Refik Saydam Caddesi 2,41.0323,28.9737,40,28,07:00-01:00,YOL ÜSTÜ,0,BEYOĞLU,1
3268,Refik Saydam Caddesi 3,41.0329,28.9739,35,27,07:00-01:00,YOL ÜSTÜ,0,BEYOĞLU,1
2307,Ressam Halim Sokak Açık Otoparkı,40.9968,28.864,120,86,24 Saat,AÇIK OTOPARK,15,BAHÇELİEVLER,1
1016,Röne Park Önü 1,40.9577,28.832,26,21,13:00-22:00,YOL ÜSTÜ,5,BAKIRKÖY,0
3082,Rumeli Hisarı Sahil Yolu Otoparkı,41.0854,29.0568,20,6,24 Saat,AÇIK OTOPARK,0,SARIYER,1
3170,Rüzgarlıbahçe Şık Sokak,41.0945,29.0986,63,54,08:00-16:00,YOL ÜSTÜ,15,BEYKOZ,0
1595,Sabiha Gökçen P+R,40.9242,29.3097,1075,562,24 Saat,AÇIK OTOPARK,15,PENDİK,1
815,Samatya Sahil,40.9989,28.9328,80,72,12:00-22:00,AÇIK OTOPARK,15,FATİH,0
3239,Samatya Sahil Cep Otoparkı,40.9955,28.932,113,0,24 Saat,AÇIK OTOPARK,15,FATİH,1
1284,Sanatkarlar Caddesi 1,41.0758,28.2441,70,70,09:00-19:00,YOL ÜSTÜ,15,SİLİVRİ,0
3274,Sarıyer Büyükdere Fidanlığı,41.1548,29.0269,160,160,08:00-20:00,AÇIK OTOPARK,0,SARIYER,0
412,Sarıyer Deresi Sokak 2,41.1692,29.0562,25,16,08:00-17:00,YOL ÜSTÜ,15,SARIYER,0
3280,Sarıyer Maslak Sümer Sokak Açık Otoparkı,41.1086,29.0164,74,74,06:45-17:00,AÇIK OTOPARK,5,SARIYER,0
410,Sarıyer Yeni Mahalle Caddesi 1,41.1681,29.0571,11,1,08:00-17:00,YOL ÜSTÜ,15,SARIYER,0
1381,Savaş Caddesi 1,41.0138,28.8867,40,31,08:00-18:00,YOL ÜSTÜ,15,GÜNGÖREN,0
1404,Savaş Caddesi 3,41.0128,28.8874,40,32,08:00-18:00,YOL ÜSTÜ,15,GÜNGÖREN,0
2728,Savaş Caddesi 4,41.0141,28.8868,20,20,08:00-18:00,YOL ÜSTÜ,15,GÜNGÖREN,0
222,Selvi Sokak 1,41.0863,29.0083,37,20,08:00-18:00,YOL ÜSTÜ,15,BEŞİKTAŞ,0
1665,Seyit Nizam  Caddesi 1,41.0043,28.9073,100,100,08:00-17:00,YOL ÜSTÜ,15,ZEYTİNBURNU,0
1303,Seyrantepe Katlı (Arena Karşısı) 1,41.1004,28.9958,1897,1895,24 Saat,KAPALI OTOPARK,0,KAĞITHANE,1
74,Sezai Selek Sokak 1,41.0534,28.996,50,50,08:00-18:00,YOL ÜSTÜ,15,ŞİŞLİ,0
1624,Sıracevizler Caddesi Yol Üstü 1,41.0577,28.9835,42,42,09:00-18:00,YOL ÜSTÜ,15,ŞİŞLİ,0
1627,Sıracevizler Caddesi Yol Üstü 4,41.0598,28.9842,45,45,09:00-18:00,YOL ÜSTÜ,15,ŞİŞLİ,0
1628,Sıracevizler Caddesi Yol Üstü 5,41.0596,28.9843,45,45,09:00-18:00,YOL ÜSTÜ,15,ŞİŞLİ,0
464,Sirkeci Gar Önü 1,41.015,28.9762,60,60,07:00-20:00,AÇIK OTOPARK,5,FATİH,0
653,Siyavuş Paşa Sokak,41.0153,28.966,23,23,07:00-18:00,YOL ÜSTÜ,0,FATİH,0
1486,Siyavuşpaşa Yer Altı Otoparkı,40.9965,28.8532,155,0,24 Saat,KAPALI OTOPARK,0,BAHÇELİEVLER,1
1958,Soğanlık Metro Açık Otoparkı,40.9133,29.1927,500,229,24 Saat,AÇIK OTOPARK,15,KARTAL,1
589,Su Terazisi Sokak,41.0046,28.9727,22,10,07:00-17:00,YOL ÜSTÜ,0,FATİH,0
1478,Suadiye Cep Açık Otoparkı,40.9586,29.0734,130,93,24 Saat,AÇIK OTOPARK,15,KADIKÖY,1
2948,Suadiye Sahil Açık Otoparkı,40.956,29.0799,70,51,24 Saat,AÇIK OTOPARK,5,KADIKÖY,1
3090,Sultanahmet Açık Otoparkı,41.0046,28.978,150,136,24 Saat,AÇIK OTOPARK,15,FATİH,1
2799,Sultanbeyli Emir Caddesi Zemin Altı Otoparkı,40.9717,29.2555,130,117,07:00-23:00,KAPALI OTOPARK,0,SULTANBEYLİ,0
2372,Sultanbeyli Kent Meydanı Zemin Altı Otoparkı,40.9668,29.2666,300,203,24 Saat,KAPALI OTOPARK,15,SULTANBEYLİ,1
2410,Sultangazi Zemin Altı Otoparkı,41.0944,28.8649,104,0,24 Saat,KAPALI OTOPARK,10,SULTANGAZİ,1
2085,Süleyman Seba Caddesi 2,41.0426,28.9998,25,7,08:00-18:00,YOL ÜSTÜ,15,BEŞİKTAŞ,0
2086,Süleyman Seba Caddesi 3,41.0428,28.9992,25,25,08:00-18:00,YOL ÜSTÜ,15,BEŞİKTAŞ,0
2089,Süleyman Seba Caddesi 6,41.0435,28.9967,30,30,08:00-18:00,YOL ÜSTÜ,15,BEŞİKTAŞ,0
2391,Süleymaniye Cami Altı Açık Otoparkı,41.0158,28.9611,250,248,06:30-18:30,AÇIK OTOPARK,0,FATİH,0
1801,Sümer Sokak 1,41.1088,29.0163,27,27,06:30-16:00,YOL ÜSTÜ,15,SARIYER,0
1730,Sütlüce Miniatürk Yanı 1,41.0571,28.95,320,241,24 Saat,AÇIK OTOPARK,15,BEYOĞLU,1
34,Şakayık Sokak 2,41.0503,28.9949,60,60,08:00-18:00,YOL ÜSTÜ,15,ŞİŞLİ,0
36,Şakayık Sokak 4,41.052,28.9933,50,35,08:00-18:00,YOL ÜSTÜ,15,ŞİŞLİ,0
550,Şehit Mithat Yılmaz caddesi 1,41.1685,29.0562,16,4,08:00-17:00,YOL ÜSTÜ,15,SARIYER,0
1469,Şehit Volkan Duysak Katlı Otoparkı,40.9965,28.9043,1000,520,24 Saat,KAPALI OTOPARK,5,ZEYTİNBURNU,1
2385,Şehremini Açık Otoparkı 1,41.0135,28.9333,60,44,07:00-22:00,AÇIK OTOPARK,0,FATİH,0
1892,Şehzadebaşı Caddesi 1,41.0127,28.958,23,23,07:00-17:30,YOL ÜSTÜ,15,FATİH,0
2855,Şemsipaşa Açık Otoparkı,41.0255,29.0098,80,74,24 Saat,AÇIK OTOPARK,0,ÜSKÜDAR,1
2439,Şirinevler Meydan Zeminaltı Otoparkı,40.9925,28.8496,367,148,24 Saat,KAPALI OTOPARK,0,BAHÇELİEVLER,1
2302,Şişli Ali Kaya Sokak 1,41.0799,29.0101,50,50,07:30-17:00,YOL ÜSTÜ,15,ŞİŞLİ,0
2415,Şişli Harbiye Cumhuriyet Caddesi Otoparkı 3,41.0426,28.9863,25,25,08:00-19:00,YOL ÜSTÜ,5,ŞİŞLİ,0
2417,Şişli Harbiye Cumhuriyet Caddesi Otoparkı 5,41.0431,28.9863,26,26,08:00-19:00,YOL ÜSTÜ,5,ŞİŞLİ,0
2418,Şişli Harbiye Cumhuriyet Caddesi Otoparkı 6,41.0422,28.9864,25,25,08:00-19:00,YOL ÜSTÜ,5,ŞİŞLİ,0
2816,Şişli Rumeli Caddesi Metro Yanı 1,41.0538,28.9869,45,45,08:00-21:00,YOL ÜSTÜ,15,ŞİŞLİ,0
2406,Şişli Zemin Altı Otoparkı,41.0641,28.9992,581,183,24 Saat,KAPALI OTOPARK,15,ŞİŞLİ,1
1894,Tacirhane Sokak 1,41.0142,28.9668,25,12,07:00-18:00,YOL ÜSTÜ,5,FATİH,0
210,Tamburi Ali Efendi Sokak 1,41.0785,29.0308,17,9,09:00-20:00,YOL ÜSTÜ,15,BEŞİKTAŞ,0
87,Taşkışla Caddesi 1,41.0479,28.9913,20,5,08:00-19:00,YOL ÜSTÜ,0,ŞİŞLİ,0
1081,Tatlıcı Kuleleri Önü,41.0686,29.0151,17,11,07:00-17:00,YOL ÜSTÜ,0,ŞİŞLİ,0
55,Teşvikiye Cami 1,41.0491,28.994,25,19,07:30-23:30,YOL ÜSTÜ,15,ŞİŞLİ,0
56,Teşvikiye Cami 2,41.0497,28.9935,25,20,07:30-23:30,YOL ÜSTÜ,15,ŞİŞLİ,0
1959,TRT Önü Açık Otoparkı,41.0326,28.9746,90,36,24 Saat,AÇIK OTOPARK,5,BEYOĞLU,1
1993,Tuzla İdo,40.815,29.3036,300,266,24 Saat,AÇIK OTOPARK,15,TUZLA,1
3057,Tuzla Sahil Zemin Altı Otoparkı,40.8178,29.3012,779,504,24 Saat,KAPALI OTOPARK,15,TUZLA,1
608,Türbedar Sokak,41.0089,28.9724,35,35,07:00-17:00,YOL ÜSTÜ,0,FATİH,0
3215,Tüyap Metrobüs Durağı Yanı Açık Otoparkı,41.022,28.6241,100,100,07:00-23:00,AÇIK OTOPARK,0,BÜYÜKÇEKMECE,0
1811,Ulu Camii Açık Otoparkı,40.998,28.85,150,0,24 Saat,AÇIK OTOPARK,0,BAHÇELİEVLER,1
2171,Unkapanı Açık Otoparkı,41.0196,28.9642,55,55,07:00-19:00,AÇIK OTOPARK,0,FATİH,0
2424,Uzunçayır Açık Otoparkı,40.9988,29.0557,53,50,06:00-16:00,AÇIK OTOPARK,0,KADIKÖY,0
2345,Uzunçayır P+R,40.9987,29.0581,150,130,06:00-17:00,AÇIK OTOPARK,0,KADIKÖY,0
1491,Ümraniye Dr. Fazıl Küçük Caddesi 1,41.027,29.1127,24,19,08:00-16:30,YOL ÜSTÜ,0,ÜMRANİYE,0
1492,Ümraniye Dr. Fazıl Küçük Caddesi 2,41.0268,29.1128,24,24,08:00-16:30,YOL ÜSTÜ,0,ÜMRANİYE,0
1855,Ümraniye Dr. Fazıl Küçük Caddesi 3,41.0265,29.113,24,23,08:00-16:30,YOL ÜSTÜ,0,ÜMRANİYE,0
1961,Ümraniye Dr. Fazıl Küçük Caddesi 4,41.0272,29.1124,24,19,08:00-16:30,YOL ÜSTÜ,0,ÜMRANİYE,0
2129,Ümraniye Dr. Fazıl Küçük Caddesi 5,41.0269,29.1125,24,13,08:00-16:30,YOL ÜSTÜ,0,ÜMRANİYE,0
2308,Ümraniye Dr. Fazıl Küçük Caddesi 6,41.0267,29.1126,24,21,08:00-16:30,YOL ÜSTÜ,0,ÜMRANİYE,0
2846,Ümraniye Dr. Fazıl Küçük Caddesi 7,41.0265,29.1129,15,12,08:00-16:30,YOL ÜSTÜ,0,ÜMRANİYE,0
1468,Ümraniye Katlı Otoparkı,41.0261,29.0953,665,213,24 Saat,KAPALI OTOPARK,15,ÜMRANİYE,1
2898,Ümraniye Okan Sokak Zeminaltı Otoparkı,41.0288,29.0911,125,23,24 Saat,KAPALI OTOPARK,15,ÜMRANİYE,1
2894,Ümraniye Toya Sokak 1,41.0263,29.1138,34,34,08:00-16:00,YOL ÜSTÜ,0,ÜMRANİYE,0
2895,Ümraniye Toya Sokak 2,41.0261,29.1151,34,34,08:00-16:00,YOL ÜSTÜ,0,ÜMRANİYE,0
2896,Ümraniye Toya Sokak 3,41.0261,29.1151,34,19,08:00-16:00,YOL ÜSTÜ,0,ÜMRANİYE,0
1929,Üsküdar Ünalan Açık P+R,40.9979,29.0605,180,176,06:30-15:00,AÇIK OTOPARK,0,ÜSKÜDAR,0
1,Vali Konağı Caddesi 1,41.0488,28.988,30,10,08:00-18:00,YOL ÜSTÜ,15,ŞİŞLİ,0
2,Vali Konağı Caddesi 2,41.049,28.9881,50,34,08:00-18:00,YOL ÜSTÜ,15,ŞİŞLİ,0
3,Vali Konağı Caddesi 3,41.0553,28.9957,50,37,08:00-18:00,YOL ÜSTÜ,15,ŞİŞLİ,0
1482,Vali Konağı Müze Önü 1,41.0495,28.9882,35,33,07:00-19:00,YOL ÜSTÜ,0,ŞİŞLİ,0
1487,Vatan Caddesi Migros Önü,41.016,28.9404,397,352,24 Saat,AÇIK OTOPARK,5,FATİH,1
135,Vefa Bayırı Sokak 1,41.0648,29.0089,40,40,07:00-17:00,YOL ÜSTÜ,15,BEŞİKTAŞ,0
136,Vefa Bey Sokak 1,41.0655,29.0066,35,18,08:00-18:00,YOL ÜSTÜ,15,BEŞİKTAŞ,0
1621,Veteriner Hilmi Sokak Yol Üstü 1,41.0603,28.9892,20,20,08:00-18:00,YOL ÜSTÜ,15,ŞİŞLİ,0
2441,Yalı Açık Otoparkı,40.9094,29.1369,85,77,07:00-23:00,AÇIK OTOPARK,15,MALTEPE,0
459,Yalı Köşkü Caddesi 1,41.0163,28.9758,120,120,07:00-21:00,YOL ÜSTÜ,5,FATİH,0
2146,Yayla Sanat Merkezi Açık Otoparkı,40.9263,29.1235,156,80,24 Saat,AÇIK OTOPARK,0,MALTEPE,1
962,Yener Sokak 1,41.0642,29.0093,25,16,08:00-17:00,YOL ÜSTÜ,15,BEŞİKTAŞ,0
2037,Yenikapı Marmaray Büyük Otoparkı,41.0057,28.9505,360,319,24 Saat,AÇIK OTOPARK,15,FATİH,1
2036,Yenikapı Marmaray Küçük Otoparkı,41.0064,28.9504,200,199,07:00-23:00,AÇIK OTOPARK,15,FATİH,0
2175,Yenikapı Spor ve Kültür Merkezi Açık Otoparkı 2,41.0007,28.9514,4023,197,24 Saat,AÇIK OTOPARK,15,FATİH,1
2805,Yenikapı Tünel Üstü Açık Otoparkı,41.0024,28.9541,700,642,24 Saat,AÇIK OTOPARK,10,FATİH,1
385,Yeniköy 1,41.1272,29.0697,11,6,09:00-18:00,YOL ÜSTÜ,0,SARIYER,0
395,Yeşil Vadi Sokak 4,40.9672,29.1058,40,21,08:00-17:00,YOL ÜSTÜ,15,ATAŞEHİR,0
2509,Yeşil Vadi Sokak 9,40.9671,29.1045,40,40,08:00-17:00,YOL ÜSTÜ,15,ATAŞEHİR,0
2920,Yeşilce Zemin Altı Katlı Otoparkı,41.0937,29.0028,676,443,24 Saat,KAPALI OTOPARK,0,KAĞITHANE,1
1352,Yeşilköy Fener Caddesi 1,40.9592,28.8384,62,51,12:00-23:00,YOL ÜSTÜ,15,BAKIRKÖY,0
985,Yeşilköy İstanbul Caddesi 3,40.9593,28.8351,33,28,09:00-18:00,YOL ÜSTÜ,15,BAKIRKÖY,0
987,Yeşilköy İstasyon Caddesi 1,40.962,28.8249,40,32,08:00-22:00,YOL ÜSTÜ,15,BAKIRKÖY,0
988,Yeşilköy İstasyon Caddesi 2,40.9619,28.8248,35,19,08:00-22:00,YOL ÜSTÜ,15,BAKIRKÖY,0
991,Yeşilköy İstasyon Caddesi 5,40.9598,28.8234,50,46,08:00-22:00,YOL ÜSTÜ,15,BAKIRKÖY,0
992,Yeşilköy İstasyon Caddesi 6,40.9595,28.8231,50,37,08:00-22:00,YOL ÜSTÜ,15,BAKIRKÖY,0
994,Yeşilköy İstasyon Caddesi 8,40.9585,28.8218,40,27,08:00-22:00,YOL ÜSTÜ,15,BAKIRKÖY,0
974,Yeşilköy Marina 1,40.9575,28.8231,145,145,12:00-23:00,YOL ÜSTÜ,0,BAKIRKÖY,0
976,Yeşilköy Marina 3,40.9567,28.8219,75,61,12:00-23:00,YOL ÜSTÜ,0,BAKIRKÖY,0
977,Yeşilköy Marina 4,40.9563,28.8216,70,53,12:00-23:00,YOL ÜSTÜ,0,BAKIRKÖY,0
978,Yeşilköy Marina 5,40.956,28.8215,150,125,12:00-23:00,YOL ÜSTÜ,0,BAKIRKÖY,0
979,Yeşilköy Marina 6,40.9556,28.8216,50,23,12:00-23:00,YOL ÜSTÜ,0,BAKIRKÖY,0
981,Yeşilköy Marina 8,40.9552,28.8212,100,100,12:00-23:00,YOL ÜSTÜ,0,BAKIRKÖY,0
2109,Yeşilköy Mesleki Eğitim Okulu Kapalı Otoparkı,40.961,28.8231,100,33,24 Saat,KAPALI OTOPARK,0,BAKIRKÖY,1
315,Yeşilyurt Çarşı 1,40.9647,28.8375,50,45,09:00-18:00,YOL ÜSTÜ,15,BAKIRKÖY,0
1014,Yeşilyurt Çarşı 2,40.9646,28.8374,50,50,09:00-18:00,YOL ÜSTÜ,15,BAKIRKÖY,0
1551,Yeşilyurt Çarşı 3,40.9644,28.8379,50,30,09:00-18:00,YOL ÜSTÜ,15,BAKIRKÖY,0
2162,Yıldız Kavşağı Yol Üstü Otoparkı,41.0515,29.0082,23,18,07:30-17:00,YOL ÜSTÜ,5,BEŞİKTAŞ,0
1133,Yıldız Korusu,41.0479,29.0151,500,500,08:00-21:00,AÇIK OTOPARK,0,BEŞİKTAŞ,0
129,Yıldızposta Caddesi 4,41.0659,29.0084,30,22,08:00-17:00,YOL ÜSTÜ,15,BEŞİKTAŞ,0
130,Yıldızposta Caddesi 5,41.0663,29.0075,25,25,08:00-17:00,YOL ÜSTÜ,15,BEŞİKTAŞ,0
131,Yıldızposta Caddesi 6,41.0655,29.0086,52,52,08:00-17:00,YOL ÜSTÜ,15,BEŞİKTAŞ,0
474,Zeynep Kamil Hastanesi Önü 1,41.0157,29.0252,35,35,08:30-17:00,YOL ÜSTÜ,15,ÜSKÜDAR,0
475,Zeynep Kamil Hastanesi Önü 2,41.0156,29.0251,24,21,08:30-17:00,YOL ÜSTÜ,15,ÜSKÜDAR,0
882,Zeytinburnu 58. Bulvar 2,40.9934,28.9038,48,48,09:00-18:00,YOL ÜSTÜ,15,ZEYTİNBURNU,0
883,Zeytinburnu 58. Bulvar 3,40.993,28.9038,34,34,09:00-18:00,YOL ÜSTÜ,15,ZEYTİNBURNU,0
886,Zeytinburnu 58. Bulvar 6,40.9893,28.9038,30,23,08:00-18:00,YOL ÜSTÜ,15,ZEYTİNBURNU,0
3185,Zeytinburnu Sahil Cep Otoparkı,40.9798,28.8983,160,160,12:00-22:00,AÇIK OTOPARK,0,ZEYTİNBURNU,0
